{"type":"FeatureCollection","avots":{"nos":"LĢIA digitālais reljefa modelis 20 m","url":"https://www.lgia.gov.lv/lv/digit%C4%81lais-reljefa-modelis","licence":"CC BY 4.0"},"slieksnis_m":23.0,"features":[{"type":"Feature","properties":{"apraksts":"Reljefs ≥ 23 m virs jūras līmeņa (LAS-2000,5), 8 ha. Ēkas un koki nav ņemti vērā; tas ir orientieris, nevis evakuācijas rīkojums."},"geometry":{"type":"Polygon","coordinates":[[[24.64006,56.78657],[24.64104,56.78657],[24.64136,56.78621],[24.64103,56.78621],[24.64103,56.78585],[24.64004,56.78585],[24.63971,56.78550],[24.63873,56.78550],[24.63871,56.78460],[24.63839,56.78460],[24.63840,56.78550],[24.63807,56.78532],[24.63774,56.78533],[24.63775,56.78569],[24.63677,56.78551],[24.63677,56.78587],[24.63514,56.78624],[24.63483,56.78696],[24.63385,56.78714],[24.63353,56.78768],[24.63451,56.78750],[24.63451,56.78786],[24.63386,56.78822],[24.63485,56.78840],[24.63452,56.78804],[24.63550,56.78785],[24.63516,56.78767],[24.63549,56.78731],[24.63614,56.78749],[24.63648,56.78803],[24.63746,56.78784],[24.63746,56.78766],[24.63811,56.78784],[24.63811,56.78748],[24.63876,56.78748],[24.63843,56.78712],[24.63974,56.78729],[24.64006,56.78657]],[[24.63746,56.78766],[24.63713,56.78749],[24.63745,56.78748],[24.63746,56.78766]],[[24.63974,56.78693],[24.63941,56.78675],[24.63973,56.78675],[24.63974,56.78693]],[[24.63647,56.78749],[24.63680,56.78767],[24.63647,56.78767],[24.63647,56.78749]],[[24.63483,56.78714],[24.63516,56.78732],[24.63483,56.78732],[24.63483,56.78714]],[[24.63711,56.78677],[24.63712,56.78713],[24.63679,56.78713],[24.63679,56.78677],[24.63711,56.78677]],[[24.63744,56.78676],[24.63777,56.78694],[24.63744,56.78694],[24.63744,56.78676]],[[24.64038,56.78639],[24.64005,56.78621],[24.64038,56.78621],[24.64038,56.78639]],[[24.64038,56.78621],[24.64070,56.78603],[24.64071,56.78621],[24.64038,56.78621]]]}},{"type":"Feature","properties":{"apraksts":"Reljefs ≥ 23 m virs jūras līmeņa (LAS-2000,5), 34 ha. Ēkas un koki nav ņemti vērā; tas ir orientieris, nevis evakuācijas rīkojums."},"geometry":{"type":"Polygon","coordinates":[[[24.60737,56.78961],[24.60901,56.78996],[24.60902,56.79032],[24.61033,56.79031],[24.61032,56.78960],[24.61064,56.78959],[24.61063,56.78888],[24.61096,56.78887],[24.61094,56.78780],[24.61127,56.78779],[24.61126,56.78743],[24.61159,56.78743],[24.61158,56.78707],[24.61223,56.78671],[24.61222,56.78599],[24.61288,56.78599],[24.61287,56.78563],[24.61123,56.78546],[24.61123,56.78528],[24.61319,56.78509],[24.61318,56.78473],[24.59420,56.78482],[24.59519,56.78536],[24.59649,56.78517],[24.59650,56.78553],[24.59683,56.78535],[24.59912,56.78534],[24.59945,56.78588],[24.59978,56.78587],[24.59946,56.78623],[24.60011,56.78623],[24.60012,56.78659],[24.60045,56.78659],[24.60045,56.78695],[24.59980,56.78695],[24.60013,56.78749],[24.60242,56.78748],[24.60242,56.78712],[24.60275,56.78712],[24.60275,56.78748],[24.60406,56.78747],[24.60374,56.78783],[24.60243,56.78802],[24.60211,56.78838],[24.60277,56.78837],[24.60310,56.78873],[24.60441,56.78873],[24.60474,56.78890],[24.60505,56.78818],[24.60604,56.78818],[24.60605,56.78872],[24.60637,56.78872],[24.60638,56.78926],[24.60671,56.78925],[24.60639,56.78997],[24.60738,56.78997],[24.60737,56.78961]],[[24.60406,56.78765],[24.60472,56.78783],[24.60473,56.78819],[24.60407,56.78801],[24.60406,56.78765]],[[24.60704,56.78961],[24.60704,56.78925],[24.60736,56.78925],[24.60737,56.78961],[24.60704,56.78961]],[[24.60406,56.78711],[24.60439,56.78729],[24.60406,56.78729],[24.60406,56.78711]]]}},{"type":"Feature","properties":{"apraksts":"Reljefs ≥ 23 m virs jūras līmeņa (LAS-2000,5), 685 ha. Ēkas un koki nav ņemti vērā; tas ir orientieris, nevis evakuācijas rīkojums."},"geometry":{"type":"Polygon","coordinates":[[[24.58603,56.78594],[24.58570,56.78594],[24.58603,56.78558],[24.58537,56.78558],[24.58536,56.78486],[24.54903,56.78503],[24.54929,56.80336],[24.54995,56.80317],[24.54995,56.80353],[24.55061,56.80353],[24.55061,56.80389],[24.55094,56.80389],[24.55095,56.80425],[24.54996,56.80425],[24.54996,56.80407],[24.54931,56.80407],[24.54931,56.80425],[24.55029,56.80443],[24.55096,56.80496],[24.55227,56.80496],[24.55359,56.80567],[24.55457,56.80567],[24.55425,56.80603],[24.55490,56.80603],[24.55491,56.80638],[24.55687,56.80620],[24.55721,56.80691],[24.55819,56.80673],[24.55819,56.80709],[24.55885,56.80709],[24.55885,56.80727],[24.55950,56.80708],[24.55984,56.80762],[24.56377,56.80778],[24.56410,56.80814],[24.56443,56.80814],[24.56443,56.80778],[24.56541,56.80778],[24.56541,56.80813],[24.56672,56.80813],[24.56705,56.80795],[24.56739,56.80848],[24.56837,56.80848],[24.56803,56.80812],[24.56836,56.80794],[24.56967,56.80794],[24.56967,56.80776],[24.57131,56.80811],[24.57130,56.80775],[24.57196,56.80792],[24.57228,56.80756],[24.57327,56.80756],[24.57326,56.80738],[24.57392,56.80738],[24.57457,56.80701],[24.57653,56.80701],[24.57653,56.80683],[24.57719,56.80682],[24.57718,56.80646],[24.57784,56.80664],[24.57881,56.80592],[24.57947,56.80591],[24.57979,56.80555],[24.58109,56.80537],[24.58174,56.80447],[24.58272,56.80446],[24.58272,56.80428],[24.58370,56.80428],[24.58369,56.80410],[24.58500,56.80409],[24.58532,56.80355],[24.58598,56.80373],[24.58663,56.80319],[24.58761,56.80336],[24.58794,56.80318],[24.58761,56.80282],[24.59022,56.80263],[24.59022,56.80245],[24.59153,56.80226],[24.59152,56.80172],[24.59250,56.80172],[24.59282,56.80136],[24.59413,56.80117],[24.59412,56.80081],[24.59478,56.80081],[24.59575,56.80009],[24.59673,56.79990],[24.59606,56.79901],[24.59540,56.79901],[24.59539,56.79829],[24.59738,56.79936],[24.59802,56.79882],[24.59868,56.79882],[24.59932,56.79791],[24.60030,56.79773],[24.60127,56.79719],[24.60126,56.79683],[24.60192,56.79682],[24.60191,56.79646],[24.60256,56.79610],[24.60322,56.79610],[24.60353,56.79538],[24.60451,56.79519],[24.60483,56.79465],[24.60712,56.79446],[24.60711,56.79410],[24.60646,56.79411],[24.60646,56.79393],[24.60711,56.79392],[24.60906,56.79284],[24.60905,56.79248],[24.60840,56.79248],[24.60774,56.79212],[24.60676,56.79213],[24.60675,56.79177],[24.60577,56.79195],[24.60379,56.79089],[24.60313,56.79089],[24.60314,56.79107],[24.60052,56.79108],[24.60051,56.79072],[24.60018,56.79072],[24.60019,56.79108],[24.59921,56.79109],[24.59919,56.79019],[24.59821,56.79037],[24.59820,56.78965],[24.59886,56.78965],[24.59885,56.78929],[24.59721,56.78912],[24.59722,56.78930],[24.59623,56.78930],[24.59657,56.78966],[24.59591,56.78967],[24.59591,56.78984],[24.59526,56.78985],[24.59525,56.78949],[24.59297,56.78968],[24.59263,56.78896],[24.59394,56.78896],[24.59460,56.78931],[24.59525,56.78913],[24.59525,56.78895],[24.59328,56.78878],[24.59328,56.78860],[24.59491,56.78859],[24.59424,56.78770],[24.59162,56.78735],[24.59162,56.78717],[24.59063,56.78717],[24.59063,56.78700],[24.58965,56.78718],[24.58965,56.78682],[24.58866,56.78682],[24.58866,56.78647],[24.58800,56.78647],[24.58800,56.78629],[24.58669,56.78630],[24.58636,56.78612],[24.58637,56.78648],[24.58604,56.78648],[24.58603,56.78594]],[[24.58637,56.78648],[24.58670,56.78665],[24.58637,56.78666],[24.58637,56.78648]],[[24.55158,56.80281],[24.55158,56.80299],[24.55093,56.80299],[24.55092,56.80281],[24.55158,56.80281]],[[24.55354,56.80262],[24.55387,56.80280],[24.55354,56.80280],[24.55354,56.80262]],[[24.55485,56.80243],[24.55518,56.80261],[24.55485,56.80261],[24.55485,56.80243]],[[24.59442,56.79884],[24.59475,56.79901],[24.59442,56.79902],[24.59442,56.79884]],[[24.59539,56.79793],[24.59473,56.79758],[24.59538,56.79757],[24.59539,56.79793]],[[24.59001,56.78897],[24.59034,56.78915],[24.59001,56.78915],[24.59001,56.78897]],[[24.59229,56.78842],[24.59262,56.78860],[24.59229,56.78860],[24.59229,56.78842]],[[24.59032,56.78825],[24.59065,56.78843],[24.59033,56.78843],[24.59032,56.78825]],[[24.59163,56.78825],[24.59196,56.78843],[24.59164,56.78843],[24.59163,56.78825]]]}},{"type":"Feature","properties":{"apraksts":"Reljefs ≥ 23 m virs jūras līmeņa (LAS-2000,5), 3026 ha. Ēkas un koki nav ņemti vērā; tas ir orientieris, nevis evakuācijas rīkojums."},"geometry":{"type":"Polygon","coordinates":[[[24.55255,56.82400],[24.55091,56.82401],[24.55155,56.82293],[24.55057,56.82347],[24.54992,56.82348],[24.54992,56.82384],[24.54959,56.82384],[24.54984,56.84073],[24.68097,56.84008],[24.67996,56.78438],[24.65573,56.78451],[24.65510,56.78560],[24.65575,56.78523],[24.65641,56.78559],[24.65414,56.78686],[24.65512,56.78703],[24.65544,56.78649],[24.65642,56.78649],[24.65611,56.78703],[24.65546,56.78739],[24.65480,56.78739],[24.65481,56.78775],[24.65319,56.78866],[24.65221,56.78866],[24.65156,56.78903],[24.65156,56.78939],[24.65058,56.78939],[24.65026,56.78993],[24.64961,56.78976],[24.64961,56.79012],[24.64863,56.79012],[24.64896,56.79030],[24.64898,56.79138],[24.64800,56.79156],[24.64767,56.79120],[24.64701,56.79121],[24.64669,56.79157],[24.64604,56.79157],[24.64604,56.79193],[24.64344,56.79320],[24.64345,56.79356],[24.64247,56.79375],[24.64182,56.79411],[24.64183,56.79447],[24.64117,56.79447],[24.64118,56.79501],[24.64086,56.79501],[24.64152,56.79537],[24.64120,56.79573],[24.64021,56.79573],[24.64022,56.79591],[24.63891,56.79610],[24.63826,56.79664],[24.63728,56.79665],[24.63729,56.79701],[24.63664,56.79737],[24.63598,56.79737],[24.63534,56.79774],[24.63534,56.79810],[24.63469,56.79810],[24.63404,56.79846],[24.63404,56.79882],[24.63339,56.79882],[24.63307,56.79954],[24.63209,56.79973],[24.63210,56.80027],[24.63080,56.80081],[24.63016,56.80172],[24.62951,56.80172],[24.62952,56.80244],[24.62822,56.80280],[24.62822,56.80316],[24.62725,56.80353],[24.62725,56.80389],[24.62466,56.80534],[24.62302,56.80570],[24.62303,56.80606],[24.62172,56.80607],[24.62140,56.80643],[24.62042,56.80644],[24.62042,56.80680],[24.61911,56.80680],[24.61749,56.80771],[24.61716,56.80753],[24.61487,56.80772],[24.61454,56.80790],[24.61456,56.80862],[24.61423,56.80862],[24.61489,56.80898],[24.61424,56.80916],[24.61424,56.80952],[24.61325,56.80899],[24.61357,56.80845],[24.61291,56.80845],[24.61258,56.80791],[24.61160,56.80792],[24.61095,56.80828],[24.60964,56.80829],[24.60964,56.80847],[24.60866,56.80847],[24.60866,56.80865],[24.60833,56.80847],[24.60702,56.80866],[24.60703,56.80902],[24.60637,56.80902],[24.60638,56.80938],[24.60572,56.80902],[24.60539,56.80920],[24.60573,56.80956],[24.60507,56.80957],[24.60542,56.81064],[24.60607,56.81064],[24.60608,56.81100],[24.60706,56.81099],[24.60772,56.81153],[24.60838,56.81153],[24.60904,56.81188],[24.60872,56.81242],[24.60970,56.81206],[24.60936,56.81170],[24.61002,56.81170],[24.61002,56.81188],[24.61067,56.81151],[24.61231,56.81169],[24.61232,56.81205],[24.61134,56.81223],[24.61134,56.81259],[24.61069,56.81277],[24.61103,56.81331],[24.61136,56.81331],[24.61137,56.81403],[24.61170,56.81403],[24.61170,56.81438],[24.61236,56.81474],[24.61302,56.81474],[24.61302,56.81492],[24.61368,56.81491],[24.61434,56.81527],[24.61499,56.81509],[24.61532,56.81544],[24.61860,56.81543],[24.61860,56.81525],[24.61925,56.81525],[24.61924,56.81489],[24.62055,56.81470],[24.62087,56.81416],[24.62316,56.81397],[24.62381,56.81361],[24.62578,56.81360],[24.62578,56.81396],[24.62676,56.81341],[24.62840,56.81358],[24.62836,56.81143],[24.62901,56.81106],[24.62966,56.81106],[24.62966,56.81088],[24.63032,56.81088],[24.63031,56.81070],[24.63097,56.81070],[24.63162,56.81033],[24.63456,56.81014],[24.63456,56.80996],[24.63587,56.81013],[24.63620,56.80995],[24.63620,56.81031],[24.63751,56.81030],[24.63752,56.81048],[24.63817,56.81048],[24.63883,56.81083],[24.63948,56.81065],[24.64015,56.81101],[24.64178,56.81100],[24.64179,56.81136],[24.64211,56.81118],[24.64310,56.81135],[24.64310,56.81117],[24.64408,56.81117],[24.64408,56.81099],[24.64572,56.81116],[24.64539,56.81134],[24.64573,56.81170],[24.64409,56.81171],[24.64409,56.81189],[24.64540,56.81188],[24.64606,56.81224],[24.64737,56.81223],[24.64770,56.81205],[24.64803,56.81240],[24.65163,56.81239],[24.65296,56.81310],[24.65296,56.81346],[24.65329,56.81346],[24.65364,56.81453],[24.65463,56.81507],[24.65464,56.81578],[24.65431,56.81561],[24.65366,56.81579],[24.65331,56.81453],[24.65298,56.81436],[24.65233,56.81454],[24.65264,56.81382],[24.65198,56.81364],[24.65165,56.81310],[24.65066,56.81311],[24.65066,56.81293],[24.64902,56.81276],[24.64902,56.81258],[24.64803,56.81258],[24.64804,56.81276],[24.64706,56.81277],[24.64705,56.81259],[24.64476,56.81278],[24.64443,56.81260],[24.64411,56.81278],[24.64410,56.81260],[24.64279,56.81261],[24.64279,56.81243],[24.64050,56.81244],[24.64016,56.81191],[24.63754,56.81174],[24.63753,56.81138],[24.63688,56.81156],[24.63622,56.81103],[24.63359,56.81104],[24.63327,56.81140],[24.63262,56.81141],[24.63198,56.81231],[24.63132,56.81231],[24.63133,56.81285],[24.63199,56.81303],[24.63167,56.81375],[24.63102,56.81393],[24.63102,56.81357],[24.63069,56.81357],[24.63070,56.81411],[24.63004,56.81411],[24.62940,56.81466],[24.62711,56.81485],[24.62711,56.81503],[24.62449,56.81486],[24.62449,56.81504],[24.62547,56.81504],[24.62547,56.81521],[24.62449,56.81522],[24.62449,56.81540],[24.62122,56.81542],[24.61992,56.81614],[24.61795,56.81615],[24.61796,56.81633],[24.61304,56.81617],[24.61106,56.81511],[24.61040,56.81511],[24.60974,56.81457],[24.60908,56.81458],[24.60908,56.81440],[24.60843,56.81458],[24.60809,56.81404],[24.60645,56.81405],[24.60677,56.81333],[24.60382,56.81334],[24.60350,56.81353],[24.60348,56.81263],[24.60316,56.81281],[24.60086,56.81264],[24.60054,56.81282],[24.60089,56.81408],[24.60154,56.81425],[24.60155,56.81461],[24.60221,56.81497],[24.60156,56.81533],[24.60091,56.81534],[24.60091,56.81569],[24.59960,56.81552],[24.59960,56.81588],[24.59862,56.81571],[24.59797,56.81607],[24.59699,56.81607],[24.59699,56.81625],[24.59568,56.81644],[24.59569,56.81680],[24.59405,56.81681],[24.59307,56.81735],[24.59374,56.81771],[24.59275,56.81771],[24.59275,56.81735],[24.59242,56.81735],[24.59243,56.81807],[24.59146,56.81861],[24.59146,56.81915],[24.58950,56.81934],[24.58853,56.81989],[24.58787,56.81989],[24.58787,56.81971],[24.58623,56.81990],[24.58590,56.81972],[24.58591,56.81990],[24.58492,56.81990],[24.58493,56.82026],[24.58329,56.82045],[24.58330,56.82063],[24.58034,56.82046],[24.58002,56.82082],[24.57969,56.82065],[24.57609,56.82084],[24.57609,56.82102],[24.57544,56.82085],[24.57512,56.82139],[24.57479,56.82121],[24.57086,56.82141],[24.57088,56.82302],[24.57219,56.82302],[24.57220,56.82320],[24.56695,56.82322],[24.56696,56.82340],[24.56564,56.82341],[24.56598,56.82358],[24.56565,56.82395],[24.56401,56.82359],[24.56435,56.82431],[24.56369,56.82431],[24.56403,56.82467],[24.56337,56.82467],[24.56371,56.82521],[24.56109,56.82576],[24.56078,56.82648],[24.55979,56.82649],[24.56012,56.82631],[24.55978,56.82595],[24.56044,56.82595],[24.56010,56.82541],[24.56043,56.82541],[24.56075,56.82505],[24.56141,56.82504],[24.56140,56.82450],[24.56075,56.82469],[24.56009,56.82433],[24.56009,56.82469],[24.55944,56.82469],[24.55943,56.82415],[24.56106,56.82379],[24.56107,56.82433],[24.56140,56.82432],[24.56139,56.82360],[24.56237,56.82342],[24.56235,56.82252],[24.56399,56.82234],[24.56333,56.82198],[24.56268,56.82216],[24.56267,56.82198],[24.56136,56.82199],[24.56103,56.82181],[24.56103,56.82145],[24.56168,56.82145],[24.56134,56.82019],[24.55872,56.82020],[24.55872,56.82056],[24.55839,56.82056],[24.55839,56.82020],[24.55708,56.82039],[24.55709,56.82075],[24.55807,56.82075],[24.55807,56.82110],[24.55872,56.82074],[24.55873,56.82128],[24.55939,56.82128],[24.56005,56.82163],[24.55874,56.82164],[24.55841,56.82146],[24.55841,56.82182],[24.55775,56.82164],[24.55711,56.82219],[24.55645,56.82201],[24.55645,56.82237],[24.55580,56.82237],[24.55515,56.82273],[24.55516,56.82327],[24.55451,56.82364],[24.55254,56.82382],[24.55255,56.82400]],[[24.65642,56.78649],[24.65675,56.78631],[24.65675,56.78648],[24.65642,56.78649]],[[24.64283,56.79554],[24.64283,56.79572],[24.64152,56.79573],[24.64152,56.79555],[24.64283,56.79554]],[[24.61716,56.80771],[24.61684,56.80789],[24.61683,56.80771],[24.61716,56.80771]],[[24.61258,56.80809],[24.61226,56.80827],[24.61226,56.80863],[24.61194,56.80863],[24.61193,56.80809],[24.61258,56.80809]],[[24.61165,56.81115],[24.61263,56.81079],[24.61262,56.81043],[24.61327,56.81042],[24.61361,56.81114],[24.61296,56.81114],[24.61264,56.81151],[24.61165,56.81151],[24.61165,56.81115]],[[24.61262,56.81043],[24.61229,56.81025],[24.61262,56.81025],[24.61262,56.81043]],[[24.61261,56.80989],[24.61294,56.80989],[24.61326,56.80971],[24.61294,56.81025],[24.61262,56.81025],[24.61261,56.80989]],[[24.61327,56.81024],[24.61393,56.81024],[24.61393,56.81042],[24.61327,56.81042],[24.61327,56.81024]],[[24.59373,56.81735],[24.59438,56.81734],[24.59439,56.81752],[24.59373,56.81753],[24.59373,56.81735]],[[24.59438,56.81734],[24.59471,56.81716],[24.59471,56.81734],[24.59438,56.81734]],[[24.58853,56.81989],[24.58886,56.82006],[24.58919,56.82024],[24.58853,56.82025],[24.58853,56.81989]],[[24.56533,56.82395],[24.56500,56.82413],[24.56500,56.82395],[24.56533,56.82395]],[[24.56043,56.82523],[24.56010,56.82505],[24.56043,56.82505],[24.56043,56.82523]],[[24.55944,56.82469],[24.55911,56.82487],[24.55911,56.82469],[24.55944,56.82469]],[[24.55418,56.82382],[24.55419,56.82418],[24.55386,56.82418],[24.55385,56.82382],[24.55418,56.82382]],[[24.56208,56.82630],[24.56241,56.82648],[24.56209,56.82648],[24.56208,56.82630]],[[24.55913,56.82613],[24.55946,56.82631],[24.55913,56.82631],[24.55913,56.82613]],[[24.56274,56.82611],[24.56307,56.82629],[24.56274,56.82629],[24.56274,56.82611]],[[24.55256,56.82490],[24.55289,56.82508],[24.55256,56.82508],[24.55256,56.82490]],[[24.55288,56.82472],[24.55255,56.82454],[24.55288,56.82454],[24.55288,56.82472]],[[24.55287,56.82400],[24.55353,56.82418],[24.55321,56.82454],[24.55288,56.82454],[24.55287,56.82400]],[[24.55025,56.82365],[24.55058,56.82383],[24.55025,56.82383],[24.55025,56.82365]],[[24.56630,56.82358],[24.56663,56.82376],[24.56631,56.82376],[24.56630,56.82358]],[[24.58984,56.81970],[24.59017,56.81988],[24.58984,56.81988],[24.58984,56.81970]],[[24.59049,56.81952],[24.59082,56.81970],[24.59049,56.81970],[24.59049,56.81952]],[[24.63204,56.81626],[24.63238,56.81644],[24.63205,56.81644],[24.63204,56.81626]],[[24.63201,56.81446],[24.63200,56.81356],[24.63265,56.81356],[24.63299,56.81428],[24.63234,56.81464],[24.63169,56.81464],[24.63201,56.81446]],[[24.60187,56.81407],[24.60219,56.81389],[24.60350,56.81371],[24.60351,56.81442],[24.60286,56.81443],[24.60285,56.81425],[24.60187,56.81443],[24.60187,56.81407]],[[24.63296,56.81248],[24.63296,56.81230],[24.63426,56.81176],[24.63427,56.81212],[24.63329,56.81266],[24.63231,56.81266],[24.63231,56.81249],[24.63296,56.81248]],[[24.63360,56.81140],[24.63393,56.81158],[24.63360,56.81158],[24.63360,56.81140]],[[24.61001,56.81134],[24.61034,56.81152],[24.61002,56.81152],[24.61001,56.81134]],[[24.61066,56.81098],[24.61099,56.81115],[24.61067,56.81116],[24.61066,56.81098]],[[24.61164,56.81061],[24.61197,56.81079],[24.61164,56.81079],[24.61164,56.81061]],[[24.60836,56.81027],[24.60869,56.81045],[24.60836,56.81045],[24.60836,56.81027]],[[24.61163,56.81007],[24.61196,56.81025],[24.61163,56.81025],[24.61163,56.81007]],[[24.60803,56.80991],[24.60836,56.81009],[24.60803,56.81009],[24.60803,56.80991]],[[24.61425,56.81006],[24.61392,56.80988],[24.61425,56.80988],[24.61425,56.81006]],[[24.61425,56.80988],[24.61457,56.80970],[24.61458,56.80988],[24.61425,56.80988]],[[24.63652,56.80977],[24.63685,56.80995],[24.63652,56.80995],[24.63652,56.80977]],[[24.61260,56.80935],[24.61293,56.80953],[24.61260,56.80953],[24.61260,56.80935]],[[24.61127,56.80828],[24.61160,56.80846],[24.61128,56.80846],[24.61127,56.80828]],[[24.64381,56.79572],[24.64414,56.79589],[24.64382,56.79590],[24.64381,56.79572]],[[24.64513,56.79589],[24.64480,56.79571],[24.64512,56.79571],[24.64513,56.79589]],[[24.64512,56.79571],[24.64545,56.79553],[24.64545,56.79571],[24.64512,56.79571]],[[24.64250,56.79518],[24.64250,56.79536],[24.64184,56.79537],[24.64184,56.79519],[24.64250,56.79518]],[[24.65028,56.79065],[24.65092,56.79011],[24.65158,56.79011],[24.65126,56.79065],[24.65028,56.79065]],[[24.65322,56.79028],[24.65322,56.79046],[24.65256,56.79046],[24.65256,56.79028],[24.65322,56.79028]],[[24.65223,56.78992],[24.65321,56.78974],[24.65287,56.78902],[24.65385,56.78884],[24.65352,56.78902],[24.65353,56.78938],[24.65385,56.78938],[24.65354,56.78992],[24.65223,56.79010],[24.65223,56.78992]],[[24.65805,56.78576],[24.65837,56.78540],[24.65870,56.78540],[24.65870,56.78576],[24.65805,56.78576]],[[24.65935,56.78521],[24.65934,56.78485],[24.66033,56.78503],[24.66033,56.78539],[24.65935,56.78521]]]}}]}