{"type":"FeatureCollection","features":[{"type":"Feature","geometry":{"type":"Point","coordinates":[22.475853,56.687059]},"properties":{"kategorija":"bistams_objekts","id":"seveso-40003010405-cd841e26","nosaukums":"Saldus naftas bāze, AS","adrese":"“Torņi”, Saldus pagasts, Saldus novads","veids":"Seveso III: augstākā līmeņa uzņēmums (drošības pārskats)","seveso_limenis":"augstākais","objekta_vieta_avota":"“Torņi”, Saldus pagasts, Saldus novads","bistamas_vielas":"1. tabulas P5c iedaļa, 2. tabulas 22. punkts, 34. punkta a), b), c) apakšpunkts: metanols, naftas produkti, citas uzliesmojošas vielas","reg_nr":"40003010405","vzd_kods":"106073245","geokodesana":"VZD adrešu reģistrs, pēc kodes: 'Torņi', Saldus pag. → VZD adrese 'Torņi', Saldus pag."}},{"type":"Feature","geometry":{"type":"Point","coordinates":[24.115122,57.005606]},"properties":{"kategorija":"bistams_objekts","id":"seveso-40003046489-51f1fe4a","nosaukums":"PARS TERMINĀLS, SIA","adrese":"Tvaika iela 7A, Rīga, LV-1005","veids":"Seveso III: augstākā līmeņa uzņēmums (drošības pārskats)","seveso_limenis":"augstākais","objekta_vieta_avota":"Tvaika iela 7a un 9, Rīga","bistamas_vielas":"1. tabulas P5c iedaļa, 2. tabulas 18. punkts, 34. punkta a), b), c) apakšpunkts: naftas produkti, SNG, citas uzliesmojošas vielas","reg_nr":"40003046489","vzd_kods":"104579582","geokodesana":"VZD adrešu reģistrs"}},{"type":"Feature","geometry":{"type":"Point","coordinates":[21.559598,57.406244]},"properties":{"kategorija":"bistams_objekts","id":"seveso-40003047747-276ef0bf","nosaukums":"VARS, SIA","adrese":"Dzintaru iela 66H, Ventspils, LV-3602","veids":"Seveso III: augstākā līmeņa uzņēmums (drošības pārskats)","seveso_limenis":"augstākais","objekta_vieta_avota":"Dzintaru iela 66H, Ventspils","bistamas_vielas":"1. tabulas H2 iedaļa: toksiska viela","reg_nr":"40003047747","vzd_kods":"105026024","geokodesana":"VZD adrešu reģistrs"}},{"type":"Feature","geometry":{"type":"Point","coordinates":[24.122798,57.016202]},"properties":{"kategorija":"bistams_objekts","id":"seveso-40003047747-b4cc8d05","nosaukums":"OVI, SIA","adrese":"Tvaika iela 35, Rīga, LV-1034","veids":"Seveso III: augstākā līmeņa uzņēmums (drošības pārskats)","seveso_limenis":"augstākais","objekta_vieta_avota":"Tvaika iela 35, Rīga","bistamas_vielas":"2. tabulas 34. punkta c), d) apakšpunkts: naftas produkti","reg_nr":"40003047747","vzd_kods":"102009921","geokodesana":"VZD adrešu reģistrs"}},{"type":"Feature","geometry":{"type":"Point","coordinates":[24.057256,57.026523]},"properties":{"kategorija":"bistams_objekts","id":"seveso-40003094173-ef7e55c2","nosaukums":"LATVIJAS FINIERIS, AS","adrese":"Finiera iela 6, Rīga, LV-1016","veids":"Seveso III: augstākā līmeņa uzņēmums (drošības pārskats)","seveso_limenis":"augstākais","objekta_vieta_avota":"rūpnīca “Lignums”, Finiera iela 6, Rīga","bistamas_vielas":"1. tabulas H2 iedaļa, 2. tabulas 18. punkts, 34 c) apakšpunkts: SNG, naftas produkti un citas uzliesmojošas un toksiskas vielas","reg_nr":"40003094173","vzd_kods":"101966422","geokodesana":"VZD adrešu reģistrs"}},{"type":"Feature","geometry":{"type":"Point","coordinates":[24.086096,57.046392]},"properties":{"kategorija":"bistams_objekts","id":"seveso-40003132723-a0b6403f","nosaukums":"NESTE LATVIJA, SIA","adrese":"Laivinieku iela 5, Rīga, LV-1015","veids":"Seveso III: augstākā līmeņa uzņēmums (drošības pārskats)","seveso_limenis":"augstākais","objekta_vieta_avota":"Rīgas terminālis, Laivinieku iela 5, Rīga","bistamas_vielas":"1. tabulas P5c, E2 iedaļa, 2. tabulas 22. punkts, 34. punkta a), b), c) apakšpunkts: metanols, naftas produkti un citas uzliesmojošas un videi bīstamas vielas","reg_nr":"40003132723","vzd_kods":"105965388","geokodesana":"VZD adrešu reģistrs"}},{"type":"Feature","geometry":{"type":"Point","coordinates":[24.136227,57.02957]},"properties":{"kategorija":"bistams_objekts","id":"seveso-40003188572-6518c213","nosaukums":"B.L.B. Baltijas Termināls, AS","adrese":"Ezera iela 22, Rīga, LV-1034","veids":"Seveso III: augstākā līmeņa uzņēmums (drošības pārskats)","seveso_limenis":"augstākais","objekta_vieta_avota":"naftas – ķīmijas terminālis, Ezera iela 22, Rīga","bistamas_vielas":"1. tabulas E1, E2 iedaļa, 2. tabulas 34. punkta b), c), d) apakšpunkts naftas produkti un videi bīstamas vielas","reg_nr":"40003188572","vzd_kods":"101830486","geokodesana":"VZD adrešu reģistrs"}},{"type":"Feature","geometry":{"type":"Point","coordinates":[24.086103,57.044054]},"properties":{"kategorija":"bistams_objekts","id":"seveso-40003215654-552bac6f","nosaukums":"Cargo Concept, SIA","adrese":"Birztalu iela 4A, Rīga, LV-1015","veids":"Seveso III: augstākā līmeņa uzņēmums (drošības pārskats)","seveso_limenis":"augstākais","objekta_vieta_avota":"Birztalu iela 4A, Rīga","bistamas_vielas":"1. tabulas P8, E1 iedaļa, 2. tabulas 6. punkts: oksidējošas un videi bīstamas cietvielas un kālija nitrāts","reg_nr":"40003215654","vzd_kods":"101821540","geokodesana":"VZD adrešu reģistrs"}},{"type":"Feature","geometry":{"type":"Point","coordinates":[26.612774,55.92888]},"properties":{"kategorija":"bistams_objekts","id":"seveso-40003229974-800aad2f","nosaukums":"Baltic Agro, SIA","adrese":"Daugavpils servisa centrs, Dzirnavnieks, Stropi 16A un 16B, Naujenes pagasts, Augšdaugavas novads","veids":"Seveso III: zemākā līmeņa uzņēmums (avāriju novēršanas programma)","seveso_limenis":"zemākais","objekta_vieta_avota":"Daugavpils servisa centrs, Dzirnavnieks, Stropi 16A un 16B, Naujenes pagasts, Augšdaugavas novads","bistamas_vielas":"2. tabulas 2. punkts: minerālmēsli","reg_nr":"40003229974","vzd_kods":"104387438","geokodesana":"VZD adrešu reģistrs, pēc kodes: adrese avotā 'Stropi 16A un 16B' → Stropi 16A (Naujenes pag.)"}},{"type":"Feature","geometry":{"type":"Point","coordinates":[23.925509,56.795516]},"properties":{"kategorija":"bistams_objekts","id":"seveso-40003245470-c66c63c8","nosaukums":"Olaines ķīmiskā rūpnīca BIOLARS, AS","adrese":"Rūpnīcu iela 3, Olaine, Olaines nov., LV-2114","veids":"Seveso III: augstākā līmeņa uzņēmums (drošības pārskats)","seveso_limenis":"augstākais","objekta_vieta_avota":"Rūpnīcu iela 3, Olaine","bistamas_vielas":"1. tabulas H1, H2, P5a, P5c, P8, E1, E2, O1 iedaļa, 2. tabulas 15., 16., 22., 33., 35. punkts, 34. punkta c) apakšpunkts: hlors, hlorūdeņradis, amonjaks, metanols,hidrazīns, naftas produkti un citas uzliesmojošas, toksiskas, oksidējošas un videi bīstamas vielas, kā arī vielas, kas reaģē ar ūdeni un citas uzliesmojošas vielas","reg_nr":"40003245470","vzd_kods":"102109158","geokodesana":"VZD adrešu reģistrs"}},{"type":"Feature","geometry":{"type":"Point","coordinates":[24.084305,57.047479]},"properties":{"kategorija":"bistams_objekts","id":"seveso-40003355501-a8938cd9","nosaukums":"NAFTIMPEKS, SIA","adrese":"Laivinieku iela 11, Rīga, LV-1015","veids":"Seveso III: augstākā līmeņa uzņēmums (drošības pārskats)","seveso_limenis":"augstākais","objekta_vieta_avota":"Laivinieku iela 11, Rīga","bistamas_vielas":"1. tabulas P5c, E2 iedaļa, 2. tabulas 34. punkta a), b), c) apakšpunkts: naftas produkti un citas uzliesmojošas un videi bīstamas vielas","reg_nr":"40003355501","vzd_kods":"105075438","geokodesana":"VZD adrešu reģistrs"}},{"type":"Feature","geometry":{"type":"Point","coordinates":[25.454933,57.517733]},"properties":{"kategorija":"bistams_objekts","id":"seveso-40003493561-141ea87a","nosaukums":"LATVIJAS PROPĀNA GĀZE, SIA","adrese":"Cempu iela 12, Valmiera, Valmieras nov., LV-4201","veids":"Seveso III: augstākā līmeņa uzņēmums (drošības pārskats)","seveso_limenis":"augstākais","objekta_vieta_avota":"Valmieras gāzes uzpildes stacija, Cempu iela 12, Valmiera","bistamas_vielas":"2. tabulas 18. punkts: SNG","reg_nr":"40003493561","vzd_kods":"102054067","geokodesana":"VZD adrešu reģistrs"}},{"type":"Feature","geometry":{"type":"Point","coordinates":[24.083802,57.021365]},"properties":{"kategorija":"bistams_objekts","id":"seveso-40003493561-1432b878","nosaukums":"LATVIJAS PROPĀNA GĀZE, SIA","adrese":"Zilā iela 20, Rīga, LV-1007","veids":"Seveso III: augstākā līmeņa uzņēmums (drošības pārskats)","seveso_limenis":"augstākais","objekta_vieta_avota":"Rīgas eksporta gāzes uzpildes stacija, Zilā iela 20, Rīga","bistamas_vielas":"2. tabulas 18. punkts: SNG","reg_nr":"40003493561","vzd_kods":"105959310","geokodesana":"VZD adrešu reģistrs"}},{"type":"Feature","geometry":{"type":"Point","coordinates":[21.631213,57.396841]},"properties":{"kategorija":"bistams_objekts","id":"seveso-40003493561-2ac73e59","nosaukums":"LATVIJAS PROPĀNA GĀZE, SIA","adrese":"Kustes dambis 33, Ventspils, LV-3602","veids":"Seveso III: augstākā līmeņa uzņēmums (drošības pārskats)","seveso_limenis":"augstākais","objekta_vieta_avota":"Kurzemes reģionālā pārvalde, Kustes dambis 33, Ventspils","bistamas_vielas":"2. tabulas 18. punkts: SNG","reg_nr":"40003493561","vzd_kods":"106285186","geokodesana":"VZD adrešu reģistrs"}},{"type":"Feature","geometry":{"type":"Point","coordinates":[26.570704,55.867084]},"properties":{"kategorija":"bistams_objekts","id":"seveso-40003493561-a6071809","nosaukums":"LATVIJAS PROPĀNA GĀZE, SIA","adrese":"Jelgavas iela 2, Daugavpils, LV-5404","veids":"Seveso III: augstākā līmeņa uzņēmums (drošības pārskats)","seveso_limenis":"augstākais","objekta_vieta_avota":"Latgales reģionālā pārvalde, Jelgavas iela 2, Daugavpils","bistamas_vielas":"2. tabulas 18. punkts: SNG","reg_nr":"40003493561","vzd_kods":"101798846","geokodesana":"VZD adrešu reģistrs"}},{"type":"Feature","geometry":{"type":"Point","coordinates":[21.027063,56.537785]},"properties":{"kategorija":"bistams_objekts","id":"seveso-40003522112-3df38dbe","nosaukums":"GI Termināls, LSEZ SIA","adrese":"Ziemeļu iela 19C, Liepāja, LV-3405","veids":"Seveso III: augstākā līmeņa uzņēmums (drošības pārskats)","seveso_limenis":"augstākais","objekta_vieta_avota":"Ziemeļu iela 19 c, Liepāja","bistamas_vielas":"1.tabulas P5a, P5c un E2 iedaļa, 2. tabulas 18., 22., 34. punkta a), b), c), d) apakšpunkts: metanols, naftas produkti, dabas gāze un citas uzliesmojošas un videi bīstamas vielas","reg_nr":"40003522112","vzd_kods":"105517613","geokodesana":"VZD adrešu reģistrs"}},{"type":"Feature","geometry":{"type":"Point","coordinates":[21.046949,56.539765]},"properties":{"kategorija":"bistams_objekts","id":"seveso-40003522112-59d0fc70","nosaukums":"DG Termināls, LSEZ SIA","adrese":"Pulvera iela 33, Liepāja, LV-3405","veids":"Seveso III: augstākā līmeņa uzņēmums (drošības pārskats)","seveso_limenis":"augstākais","objekta_vieta_avota":"naftas un ķīmisko produktu terminālis, Pulvera iela 33, Liepāja","bistamas_vielas":"1.tabulas P5c un E2 iedaļa, 2. tabulas 18., 22., 34. punkta a), b), c), d) apakšpunkts: metanols, naftas produkti, dabas gāze un citas uzliesmojošas un videi bīstamas vielas","reg_nr":"40003522112","vzd_kods":"104765441","geokodesana":"VZD adrešu reģistrs"}},{"type":"Feature","geometry":{"type":"Point","coordinates":[21.604664,57.414495]},"properties":{"kategorija":"bistams_objekts","id":"seveso-40003569274-7c6c68d7","nosaukums":"Vitol Terminal Latvia SIA","adrese":"Talsu iela 75, Ventspils, LV-3602","veids":"Seveso III: augstākā līmeņa uzņēmums (drošības pārskats)","seveso_limenis":"augstākais","objekta_vieta_avota":"Talsu iela 75, Ventspils","bistamas_vielas":"1. tabulas P5a, P5c, E2 iedaļa, 2. tabulas 18. punkts, 34. punkta a), b), c) apakšpunkts: SNG, naftas produkti","reg_nr":"40003569274","vzd_kods":"101660752","geokodesana":"VZD adrešu reģistrs"}},{"type":"Feature","geometry":{"type":"Point","coordinates":[26.564783,55.869023]},"properties":{"kategorija":"bistams_objekts","id":"seveso-40103047673-65fe9920","nosaukums":"Latvijas nacionālā nekustāmo īpašumu aģentūra, SIA","adrese":"Jelgavas iela 2A, Daugavpils, LV-5404","veids":"Seveso III: augstākā līmeņa uzņēmums (drošības pārskats)","seveso_limenis":"augstākais","objekta_vieta_avota":"Daugavpils naftas bāze, Jelgavas iela 2a, Daugavpils","bistamas_vielas":"2. tabulas 34. punkta a), c) apakšpunkts: naftas produkti; 2. tabulas 18. punkts SNG","reg_nr":"40103047673","vzd_kods":"101798870","geokodesana":"VZD adrešu reģistrs"}},{"type":"Feature","geometry":{"type":"Point","coordinates":[24.10711,57.004245]},"properties":{"kategorija":"bistams_objekts","id":"seveso-40103261378-7d9aafa1","nosaukums":"Riga fertilizer terminal, SIA","adrese":"Minerālmēslu īslaicīgas uzglabāšanas un pārkraušanas komplekss, Kundziņsalas 8. līnija 5, Rīga","veids":"Seveso III: augstākā līmeņa uzņēmums (drošības pārskats)","seveso_limenis":"augstākais","objekta_vieta_avota":"Minerālmēslu īslaicīgas uzglabāšanas un pārkraušanas komplekss, Kundziņsalas 8. līnija 5, Rīga","bistamas_vielas":"2. tabulas 2. punkts: minerālmēsli","reg_nr":"40103261378","vzd_kods":"101920257","geokodesana":"VZD adrešu reģistrs, pēc kodes: Kundziņsalas 8. līnija 5 nav VZD → tuvākā reģistrētā adrese 8. līnija 10 (aptuveni, ~60 m)"}},{"type":"Feature","geometry":{"type":"Point","coordinates":[23.996286,56.814968]},"properties":{"kategorija":"bistams_objekts","id":"seveso-40103716379-d3975623","nosaukums":"Pirmas, SIA","adrese":"Olaines naftas bāze, Jelgavas šosejas 16. km, Olaines pagasts, Olaines novads","veids":"Seveso III: augstākā līmeņa uzņēmums (drošības pārskats)","seveso_limenis":"augstākais","objekta_vieta_avota":"Olaines naftas bāze, Jelgavas šosejas 16. km, Olaines pagasts, Olaines novads","bistamas_vielas":"1. tabulas P5c iedaļa, 2. tabulas 18. punkts, 34. punkta a), c) apakšpunkts: naftas produkti, SNG, citas uzliesmojošas vielas","reg_nr":"40103716379","vzd_kods":"106353470","geokodesana":"VZD adrešu reģistrs, pēc kodes: Olaines naftas bāze (Jelgavas šosejas 16. km) → VZD ēka 'Naftas bāze', Olaines pag. (aptuveni)"}},{"type":"Feature","geometry":{"type":"Point","coordinates":[24.697017,57.167559]},"properties":{"kategorija":"bistams_objekts","id":"seveso-40203041605-e90fff43","nosaukums":"Conexus Baltic Grid, AS","adrese":"ekspluatācijas iecirknis Inčukalna pazemes gāzes krātuve, Ragana, Krimuldas pagasts, Siguldas novads","veids":"Seveso III: augstākā līmeņa uzņēmums (drošības pārskats)","seveso_limenis":"augstākais","objekta_vieta_avota":"ekspluatācijas iecirknis Inčukalna pazemes gāzes krātuve, Ragana, Krimuldas pagasts, Siguldas novads","bistamas_vielas":"2. tabulas 18., 22. punkts: dabas gāze, metanols","reg_nr":"40203041605","vzd_kods":"105589484","geokodesana":"VZD adrešu reģistrs, pēc kodes: Inčukalna pazemes gāzes krātuve → VZD ēka 'Inčukalna gāzes krātuve', Krimuldas pag."}},{"type":"Feature","geometry":{"type":"Point","coordinates":[24.084617,57.046613]},"properties":{"kategorija":"bistams_objekts","id":"seveso-40203164596-e2934742","nosaukums":"Circle K Terminal & Transport Latvia, SIA","adrese":"Laivinieku iela 7, Rīga, LV-1015","veids":"Seveso III: augstākā līmeņa uzņēmums (drošības pārskats)","seveso_limenis":"augstākais","objekta_vieta_avota":"Rīgas terminālis, Laivinieku iela 7, Rīga","bistamas_vielas":"1. tabulas P5c, E2 iedaļa, 2. tabulas 34. punkta a), c) apakšpunkts: naftas produkti un citas uzliesmojošas un videi bīstamas vielas 2. tabulas 18., 22. punkts: dabas gāze, metanols","reg_nr":"40203164596","vzd_kods":"105870003","geokodesana":"VZD adrešu reģistrs"}},{"type":"Feature","geometry":{"type":"Point","coordinates":[21.554186,57.401761]},"properties":{"kategorija":"bistams_objekts","id":"seveso-41203019923-3a0b99b2","nosaukums":"VENTBUNKERS, AS","adrese":"Dzintaru iela 90, Ventspils, LV-3602","veids":"Seveso III: augstākā līmeņa uzņēmums (drošības pārskats)","seveso_limenis":"augstākais","objekta_vieta_avota":"Dzintaru iela 90, Ventspils","bistamas_vielas":"2. tabulas 34. punkta c), d) apakšpunkts: naftas produkti","reg_nr":"41203019923","vzd_kods":"104458326","geokodesana":"VZD adrešu reģistrs"}},{"type":"Feature","geometry":{"type":"Point","coordinates":[21.564928,57.404962]},"properties":{"kategorija":"bistams_objekts","id":"seveso-41203050838-f246e967","nosaukums":"Ventall Termināls, SIA","adrese":"Dzintaru iela 66, Ventspils, LV-3602","veids":"Seveso III: augstākā līmeņa uzņēmums (drošības pārskats)","seveso_limenis":"augstākais","objekta_vieta_avota":"Dzintaru iela 66, Ventspils","bistamas_vielas":"1. tabulas P5c, E2 iedaļa, 2. tabulas 22. punkts, 34. punkta a), b), c) apakšpunkts: metanols, naftas produkti un citas uzliesmojošas un videi bīstamas vielas","reg_nr":"41203050838","vzd_kods":"101646163","geokodesana":"VZD adrešu reģistrs"}},{"type":"Feature","geometry":{"type":"Point","coordinates":[20.999109,56.517384]},"properties":{"kategorija":"bistams_objekts","id":"seveso-42103052742-4f81759e","nosaukums":"TRANSIT TERMINĀLS, LSEZ SIA","adrese":"Jaunā ostmala 33/35, Liepāja, LV-3401","veids":"Seveso III: augstākā līmeņa uzņēmums (drošības pārskats)","seveso_limenis":"augstākais","objekta_vieta_avota":"naftas produktu terminālis, Jaunā ostmala 33/35, Liepāja","bistamas_vielas":"1. tabulas P5c, E1, E2 iedaļa, 2 tabulas 34. punkta c), d) apakšpunkts: naftas produkti un citas uzliesmojošas un videi bīstamas vielas","reg_nr":"42103052742","vzd_kods":"104162273","geokodesana":"VZD adrešu reģistrs"}},{"type":"Feature","geometry":{"type":"Point","coordinates":[21.564928,57.404962]},"properties":{"kategorija":"bistams_objekts","id":"seveso-50003179321-f246e967","nosaukums":"VENTAMONJAKS, SIA","adrese":"Dzintaru iela 66, Ventspils, LV-3602","veids":"Seveso III: augstākā līmeņa uzņēmums (drošības pārskats)","seveso_limenis":"augstākais","objekta_vieta_avota":"Dzintaru iela 66, Ventspils","bistamas_vielas":"2. tabulas 18., 35. punkts. 34. punkta c) apakšpunkts amonjaks, sašķidrināta naftas gāze, naftas produkti","reg_nr":"50003179321","vzd_kods":"101646163","geokodesana":"VZD adrešu reģistrs"}},{"type":"Feature","geometry":{"type":"Point","coordinates":[26.48949,55.896329]},"properties":{"kategorija":"bistams_objekts","id":"seveso-51503023031-a16322b9","nosaukums":"INTERGAZ, SIA","adrese":"Vaļņu iela 30, Daugavpils, LV-5401","veids":"Seveso III: augstākā līmeņa uzņēmums (drošības pārskats)","seveso_limenis":"augstākais","objekta_vieta_avota":"sašķidrinātās gāzes termināls, Valņu iela 30, Daugavpils","bistamas_vielas":"2. tabulas 18. punkts: SNG","reg_nr":"51503023031","vzd_kods":"103940848","geokodesana":"VZD adrešu reģistrs"}},{"type":"Feature","geometry":{"type":"Point","coordinates":[23.683761,56.420538]},"properties":{"kategorija":"bistams_objekts","id":"seveso-58503007191-54a40f0e","nosaukums":"LATRAPS, Lauksaimniecības pakalpojumu KS","adrese":"Lietuvas iela 16A, Eleja, Elejas pag., Jelgavas nov., LV-3023","veids":"Seveso III: augstākā līmeņa uzņēmums (drošības pārskats)","seveso_limenis":"augstākais","objekta_vieta_avota":"Elejas graudu pirmapstrādes komplekss, Lietuvas iela 16a, Eleja, Elejas pagasts, Jelgavas novads","bistamas_vielas":"2. tabulas 2., 18. punkts, E2 iedaļa, 34. punkta c) apakšpunkts: SNG, minerālmēsli un videi bīstamas vielas (augu aizsardzības līdzekļi)","reg_nr":"58503007191","vzd_kods":"102246724","geokodesana":"VZD adrešu reģistrs"}}]}