{"type":"FeatureCollection","features":[{"type":"Feature","geometry":{"type":"Point","coordinates":[24.233618,56.419447]},"properties":{"kategorija":"bistams_objekts","id":"023142","nosaukums":"AS “Ķekava Foods”, putnu gaļas ražošanas uzņēmums","adrese":"Janeikas, Ceraukstes pagasts, Bauskas novads","veids":"Rūpnieciskā ražotne (E-PRTR / IED)","darbibas_kods":"7(a)(i)","darbiba":"Intensīva putnu audzēšana","uznemums":"AS “Ķekava Foods”","majaslapa":"https://vistas.lv/"}},{"type":"Feature","geometry":{"type":"Point","coordinates":[26.836106,56.103611]},"properties":{"kategorija":"bistams_objekts","id":"023446","nosaukums":"AS \"Latgales bekons\", komplekss \"Lukna\"","adrese":"Latgales bekons 1, Višķu pagasts, Augšdaugavas novads","veids":"Rūpnieciskā ražotne (E-PRTR / IED)","darbibas_kods":"7(a)(ii)","darbiba":"Intensīva cūku audzēšana","uznemums":"AS \"Latgales bekons\""}},{"type":"Feature","geometry":{"type":"Point","coordinates":[24.079451,56.88778]},"properties":{"kategorija":"bistams_objekts","id":"041925","nosaukums":"AS “Rīgas siltums” siltumcentrāle “Ziepniekkalns”","adrese":"Siltuma 6, Rīga","veids":"Rūpnieciskā ražotne (E-PRTR / IED)","darbibas_kods":"1(c)","darbiba":"Siltumelektrostacijas un citas sadedzināšanas iekārtas","uznemums":"AS “Rīgas siltums”","majaslapa":"https://www.rs.lv/"}},{"type":"Feature","geometry":{"type":"Point","coordinates":[24.650601,56.58415]},"properties":{"kategorija":"bistams_objekts","id":"041943","nosaukums":"SIA \"LLR-ECOTECH\"","adrese":"Ganību dambis 21 a, Rīga","veids":"Rūpnieciskā ražotne (E-PRTR / IED)","darbibas_kods":"2(e)(ii)","darbiba":"Krāsainie metāli","uznemums":"SIA \"LLR-ECOTECH\"","majaslapa":"http://www.metall.lv/"}},{"type":"Feature","geometry":{"type":"Point","coordinates":[26.522222,55.865878]},"properties":{"kategorija":"bistams_objekts","id":"042326","nosaukums":"Pašvaldības AS \"Daugavpils siltumtīkli\" siltumcentrāle Nr.1","adrese":"18.novembra 2, Daugavpils","veids":"Rūpnieciskā ražotne (E-PRTR / IED)","darbibas_kods":"1(c)","darbiba":"Siltumelektrostacijas un citas sadedzināšanas iekārtas","uznemums":"AS \"Daugavpils siltumtīkli\"","majaslapa":"http://www.dsiltumtikli.lv/"}},{"type":"Feature","geometry":{"type":"Point","coordinates":[26.550556,55.868893]},"properties":{"kategorija":"bistams_objekts","id":"042328","nosaukums":"Pašvaldības AS \"Daugavpils siltumtīkli\" siltumcentrāle Nr.2","adrese":"Silikātu 8, Daugavpils","veids":"Rūpnieciskā ražotne (E-PRTR / IED)","darbibas_kods":"1(c)","darbiba":"Siltumelektrostacijas un citas sadedzināšanas iekārtas","uznemums":"AS \"Daugavpils siltumtīkli\"","majaslapa":"http://www.dsiltumtikli.lv/"}},{"type":"Feature","geometry":{"type":"Point","coordinates":[23.690841,56.655279]},"properties":{"kategorija":"bistams_objekts","id":"042351","nosaukums":"SIA \"Gren Jelgava\"","adrese":"Ganību 71, Jelgava","veids":"Rūpnieciskā ražotne (E-PRTR / IED)","darbibas_kods":"1(c)","darbiba":"Siltumelektrostacijas un citas sadedzināšanas iekārtas","uznemums":"SIA \"Gren Jelgava\"","majaslapa":"https://gren.com/lv/"}},{"type":"Feature","geometry":{"type":"Point","coordinates":[24.120003,57.020003]},"properties":{"kategorija":"bistams_objekts","id":"043859","nosaukums":"SIA \"Oil Recovery\"","adrese":"Tvaika 39, Rīga","veids":"Rūpnieciskā ražotne (E-PRTR / IED)","darbibas_kods":"5(a)","darbiba":"Bīstamo atkritumu apsaimniekošana","uznemums":"SIA ”Oil Recovery”","majaslapa":"https://www.oilrecovery.lv/"}},{"type":"Feature","geometry":{"type":"Point","coordinates":[23.173331,56.64194]},"properties":{"kategorija":"bistams_objekts","id":"044682","nosaukums":"AS \"BAO\", Auru pagasts","adrese":"Gardenes bīstamo atkritumu novietne, Auru pagasts, Dobeles novads","veids":"Rūpnieciskā ražotne (E-PRTR / IED)","darbibas_kods":"5(a)","darbiba":"Bīstamo atkritumu apsaimniekošana","uznemums":"AS \"BAO\"","majaslapa":"http://www.bao.lv/"}},{"type":"Feature","geometry":{"type":"Point","coordinates":[26.551393,55.897782]},"properties":{"kategorija":"bistams_objekts","id":"045652","nosaukums":"Pašvaldības AS \"Daugavpils siltumtīkli\" siltumcentrāle Nr.3","adrese":"Mendeļejeva 13a, Daugavpils","veids":"Rūpnieciskā ražotne (E-PRTR / IED)","darbibas_kods":"1(c)","darbiba":"Siltumelektrostacijas un citas sadedzināšanas iekārtas","uznemums":"AS \"Daugavpils siltumtīkli\"","majaslapa":"http://www.dsiltumtikli.lv/"}},{"type":"Feature","geometry":{"type":"Point","coordinates":[24.261109,56.88667]},"properties":{"kategorija":"bistams_objekts","id":"045752","nosaukums":"SIA \"Getliņi Eko\"","adrese":"Kaudzīšu 57a, Rumbula, Ropažu novads","veids":"Rūpnieciskā ražotne (E-PRTR / IED)","darbibas_kods":"5(d)","darbiba":"Atkritumu poligons","uznemums":"SIA \"Getliņi Eko\"","majaslapa":"http://www.getlini.lv/"}},{"type":"Feature","geometry":{"type":"Point","coordinates":[24.152779,56.943054]},"properties":{"kategorija":"bistams_objekts","id":"045761","nosaukums":"SIA \"NORTHERN SYNTHESIS\"","adrese":"Kalna 23, Rīga","veids":"Rūpnieciskā ražotne (E-PRTR / IED)","darbibas_kods":"4(e)","darbiba":"Ķīmiskā rūpniecība (neorganiskās vielas)","uznemums":"SIA \"NORTHERN SYNTHESIS\"","majaslapa":"http://www.northernsynthesis.eu/"}},{"type":"Feature","geometry":{"type":"Point","coordinates":[24.788565,57.194377]},"properties":{"kategorija":"bistams_objekts","id":"045819","nosaukums":"SIA \"ANCERS\", cūku audzēšanas komplekss \"Rukas\"","adrese":"Rukas, Krimuldas pagasts, Siguldas novads,","veids":"Rūpnieciskā ražotne (E-PRTR / IED)","darbibas_kods":"7(a)(ii)","darbiba":"Intensīva cūku audzēšana","uznemums":"SIA \"ANCERS\""}},{"type":"Feature","geometry":{"type":"Point","coordinates":[23.384964,56.724014]},"properties":{"kategorija":"bistams_objekts","id":"046480","nosaukums":"SIA \"Latvi dan agro\", cūku nobarošanas komplekts \"Ošlejas\"","adrese":"Ošlejas, Jaunbērzes pagasts, Dobeles novads","veids":"Rūpnieciskā ražotne (E-PRTR / IED)","darbibas_kods":"7(a)(iii)","darbiba":"Intensīva sivēnmāšu audzēšana","uznemums":"SIA \"Latvi Dan Agro\""}},{"type":"Feature","geometry":{"type":"Point","coordinates":[24.113612,56.91722]},"properties":{"kategorija":"bistams_objekts","id":"047260","nosaukums":"AS \"Baltic Zinc Technics\"","adrese":"Antenas 3A, Riga","veids":"Rūpnieciskā ražotne (E-PRTR / IED)","darbibas_kods":"2(c)(iii)","darbiba":"Melno metālu cinkošana","uznemums":"AS \"Baltic Zinc Technics\"","majaslapa":"http://www.bzt.lv/"}},{"type":"Feature","geometry":{"type":"Point","coordinates":[22.629968,56.717748]},"properties":{"kategorija":"bistams_objekts","id":"047680","nosaukums":"SIA \"Viduskurzemes AAO\", Vibsteri","adrese":"Vibsteri, Remtes pagasts, Saldus novads","veids":"Rūpnieciskā ražotne (E-PRTR / IED)","darbibas_kods":"5(a)","darbiba":"Bīstamo atkritumu apsaimniekošana","uznemums":"SIA \"Viduskurzemes AAO\"","majaslapa":"http://vaao.lv/"}},{"type":"Feature","geometry":{"type":"Point","coordinates":[25.523865,57.32123]},"properties":{"kategorija":"bistams_objekts","id":"048131","nosaukums":"SIA \"Gaižēni\", Cūku nobarošanas komplekss „Smurģi”","adrese":"Jaunsmurģi, Priekuļu pagasts, Cēsu novads","veids":"Rūpnieciskā ražotne (E-PRTR / IED)","darbibas_kods":"7(a)(ii)","darbiba":"Intensīva cūku audzēšana","uznemums":"SIA \"Gaižēni\"","majaslapa":"http://www.livlande.lv/kontakti.html"}},{"type":"Feature","geometry":{"type":"Point","coordinates":[24.806107,57.023333]},"properties":{"kategorija":"bistams_objekts","id":"048667","nosaukums":"SIA \"Baltic Pork\"","adrese":"Krastmalas, Allažu pagasts, Siguldas novads","veids":"Rūpnieciskā ražotne (E-PRTR / IED)","darbibas_kods":"7(a)(ii)","darbiba":"Intensīva cūku audzēšana","uznemums":"SIA \"Baltic Pork\"","majaslapa":"https://balticpork.com/"}},{"type":"Feature","geometry":{"type":"Point","coordinates":[23.310396,56.534455]},"properties":{"kategorija":"bistams_objekts","id":"049093","nosaukums":"SIA \"Rīgas kombinētās lopbarības rūpnīca\", komplekss “Kroņauce”","adrese":"Pogas 1, Auru pagasts, Dobeles novads","veids":"Rūpnieciskā ražotne (E-PRTR / IED)","darbibas_kods":"7(a)(ii)","darbiba":"Intensīva cūku audzēšana","uznemums":"SIA \"Rīgas kombinētās lopbarības rūpnīca\"","majaslapa":"http://rigafeed.lv/"}},{"type":"Feature","geometry":{"type":"Point","coordinates":[22.908248,56.4779]},"properties":{"kategorija":"bistams_objekts","id":"049095","nosaukums":"SIA \"PF VECAUCE\", cūkkopības komplekss „Pūpoli”","adrese":"Pūpoli, Vecauces pagasts, Auces novads","veids":"Rūpnieciskā ražotne (E-PRTR / IED)","darbibas_kods":"7(a)(ii)","darbiba":"Intensīva cūku audzēšana","uznemums":"SIA \"PF VECAUCE\""}},{"type":"Feature","geometry":{"type":"Point","coordinates":[21.523206,56.812255]},"properties":{"kategorija":"bistams_objekts","id":"049439","nosaukums":"SIA „Nygaard International ”nobarojamo cūku audzēšanas komplekss „Apriķi Bacon”","adrese":"Apriķu Bekons, Lažas pagasts, Dienvidkurzemes novads","veids":"Rūpnieciskā ražotne (E-PRTR / IED)","darbibas_kods":"7(a)(ii)","darbiba":"Intensīva cūku audzēšana","uznemums":"SIA „Nygaard International ”"}},{"type":"Feature","geometry":{"type":"Point","coordinates":[23.928884,56.793887]},"properties":{"kategorija":"bistams_objekts","id":"049497","nosaukums":"AS \"BAO\", Olaine","adrese":"Celtnieku 3A, Olaine","veids":"Rūpnieciskā ražotne (E-PRTR / IED)","darbibas_kods":"5(d)","darbiba":"Atkritumu poligons","uznemums":"AS \"BAO\"","majaslapa":"http://www.bao.lv/"}},{"type":"Feature","geometry":{"type":"Point","coordinates":[21.1924,56.560741]},"properties":{"kategorija":"bistams_objekts","id":"049980","nosaukums":"SIA \"Liepājas RAS\", sadzīves atkritumu poligons","adrese":"Ķīvītes, Grobiņas pagasts, Dienvidkurzemes novads","veids":"Rūpnieciskā ražotne (E-PRTR / IED)","darbibas_kods":"5(c)","darbiba":"Nebīstamo atkritumu apsaimniekošana","uznemums":"SIA \"Liepājas RAS\"","majaslapa":"http://www.liepajasras.lv/"}},{"type":"Feature","geometry":{"type":"Point","coordinates":[22.635137,56.690259]},"properties":{"kategorija":"bistams_objekts","id":"049981","nosaukums":"SIA \"VAAO poligons\", „Dūmiņi”","adrese":"Dūmiņi, Brocēni, Saldus novads","veids":"Rūpnieciskā ražotne (E-PRTR / IED)","darbibas_kods":"5(a)","darbiba":"Bīstamo atkritumu apsaimniekošana","uznemums":"SIA \"VAAO poligons\"","majaslapa":"http://vaao.lv/"}},{"type":"Feature","geometry":{"type":"Point","coordinates":[21.029166,56.510005]},"properties":{"kategorija":"bistams_objekts","id":"050251","nosaukums":"Liepājas speciālās ekonomiskās zonas pārvalde","adrese":"Liepājas ostas 27.piestātne 27, Liepaja","veids":"Rūpnieciskā ražotne (E-PRTR / IED)","darbibas_kods":"5(a)","darbiba":"Bīstamo atkritumu apsaimniekošana","uznemums":"Liepājas speciālās ekonomiskās zonas pārvalde","majaslapa":"https://liepaja-sez.lv/"}},{"type":"Feature","geometry":{"type":"Point","coordinates":[21.526096,56.825569]},"properties":{"kategorija":"bistams_objekts","id":"050666","nosaukums":"SIA \"NYGAARD INTERNATIONAL\", \"Ozolāji\"","adrese":"Ozolāji, Lažas pagasts, Dienvidkurzemes novads","veids":"Rūpnieciskā ražotne (E-PRTR / IED)","darbibas_kods":"7(a)(ii)","darbiba":"Intensīva cūku audzēšana","uznemums":"SIA \"NYGAARD INTERNATIONAL\""}},{"type":"Feature","geometry":{"type":"Point","coordinates":[24.972225,57.403332]},"properties":{"kategorija":"bistams_objekts","id":"050772","nosaukums":"SIA \"ZAAO\", sadzīves atkritumu poligons","adrese":"Stūri, Stalbes pagasts, Cēsu novads","veids":"Rūpnieciskā ražotne (E-PRTR / IED)","darbibas_kods":"5(c)","darbiba":"Nebīstamo atkritumu apsaimniekošana","uznemums":"SIA \"ZAAO\"","majaslapa":"http://www.zaao.lv/"}},{"type":"Feature","geometry":{"type":"Point","coordinates":[21.00361,56.516388]},"properties":{"kategorija":"bistams_objekts","id":"052497","nosaukums":"SIA \"Liepājas enerģija\", termoelektrocentrāle (TEC)","adrese":"Kaiju 33, Liepāja","veids":"Rūpnieciskā ražotne (E-PRTR / IED)","darbibas_kods":"1(c)","darbiba":"Siltumelektrostacijas un citas sadedzināšanas iekārtas","uznemums":"SIA \"Liepājas enerģija\"","majaslapa":"https://liepajasenergija.lv/"}},{"type":"Feature","geometry":{"type":"Point","coordinates":[22.981617,56.544608]},"properties":{"kategorija":"bistams_objekts","id":"053089","nosaukums":"SIA \"Latvi Dan Agro\", komplekss \"Avoti \"","adrese":"Avoti, Īles pagasts, Dobeles novads","veids":"Rūpnieciskā ražotne (E-PRTR / IED)","darbibas_kods":"7(a)(ii)","darbiba":"Intensīva cūku audzēšana","uznemums":"SIA \"BALTIC BREEDERS\""}},{"type":"Feature","geometry":{"type":"Point","coordinates":[24.176674,56.363829]},"properties":{"kategorija":"bistams_objekts","id":"053326","nosaukums":"SIA \"Gaižēni\"cūkkopības kompleks \"Skalderi\"","adrese":"Skalderi, Īslīces pagasts, Bauskas novads","veids":"Rūpnieciskā ražotne (E-PRTR / IED)","darbibas_kods":"7(a)(iii)","darbiba":"Intensīva sivēnmāšu audzēšana","uznemums":"SIA \"Gaižēni\"","majaslapa":"http://www.livlande.lv/kontakti.html"}},{"type":"Feature","geometry":{"type":"Point","coordinates":[24.229728,56.913053]},"properties":{"kategorija":"bistams_objekts","id":"053798","nosaukums":"SIA \"Tolmets\"","adrese":"Granīta 13A, Rīga","veids":"Rūpnieciskā ražotne (E-PRTR / IED)","darbibas_kods":"5(c)","darbiba":"Nebīstamo atkritumu apsaimniekošana","uznemums":"SIA \"Tolmets Latvija\"","majaslapa":"https://www.tolmets.lv/"}},{"type":"Feature","geometry":{"type":"Point","coordinates":[27.293338,56.400836]},"properties":{"kategorija":"bistams_objekts","id":"054728","nosaukums":"SIA \"ALAAS\"","adrese":"Križevņiki 2, Križevņiki, Ozolaines pagasts, Rēzeknes novads","veids":"Rūpnieciskā ražotne (E-PRTR / IED)","darbibas_kods":"5(d)","darbiba":"Atkritumu poligons","uznemums":"SIA \"ALAAS\"","majaslapa":"http://alaas.lv/"}},{"type":"Feature","geometry":{"type":"Point","coordinates":[22.394165,57.25333]},"properties":{"kategorija":"bistams_objekts","id":"054958","nosaukums":"SIA \"Starteris\", cūku audzēšanas kompleks \"Brīvkalni\"","adrese":"Brīvnieki, Ģibuļu pagasts, Talsu novads","veids":"Rūpnieciskā ražotne (E-PRTR / IED)","darbibas_kods":"7(a)(ii)","darbiba":"Intensīva cūku audzēšana","uznemums":"SIA \"NYGAARD INTERNATIONAL\""}},{"type":"Feature","geometry":{"type":"Point","coordinates":[21.798061,56.390003]},"properties":{"kategorija":"bistams_objekts","id":"055298","nosaukums":"SIA \"Vaiņodes Bekons\" cūku audzēšanas kompleks","adrese":"Smaidas, Vaiņodes pagasts, Dienvidkurzemes novads","veids":"Rūpnieciskā ražotne (E-PRTR / IED)","darbibas_kods":"7(a)(ii)","darbiba":"Intensīva cūku audzēšana","uznemums":"SIA \"Vaiņodes Bekons\"","majaslapa":"http://vainodesbekons.lv/"}},{"type":"Feature","geometry":{"type":"Point","coordinates":[23.769243,56.661522]},"properties":{"kategorija":"bistams_objekts","id":"055360","nosaukums":"SIA \"Zn Metāls\"","adrese":"Aviācijas 18e, Jelgava","veids":"Rūpnieciskā ražotne (E-PRTR / IED)","darbibas_kods":"2(c)(iii)","darbiba":"Melno metālu cinkošana","uznemums":"SIA \"Zn Metāls\"","majaslapa":"https://znmetals.lv/"}},{"type":"Feature","geometry":{"type":"Point","coordinates":[24.260837,56.885278]},"properties":{"kategorija":"bistams_objekts","id":"055450","nosaukums":"SIA „AP Kaudzītes”, Sadzīves atkritumu poligons „Kaudzītes”","adrese":"Kaudzītes, Litenes pagasts, Gulbenes novads","veids":"Rūpnieciskā ražotne (E-PRTR / IED)","darbibas_kods":"5(d)","darbiba":"Atkritumu poligons","uznemums":"SIA „AP Kaudzītes”","majaslapa":"http://www.kaudzites.lv/"}},{"type":"Feature","geometry":{"type":"Point","coordinates":[27.325554,56.507219]},"properties":{"kategorija":"bistams_objekts","id":"056778","nosaukums":"AS \"Rēzeknes siltumtīkli\"","adrese":"Rīgas 1, Rēzekne","veids":"Rūpnieciskā ražotne (E-PRTR / IED)","darbibas_kods":"1(c)","darbiba":"Siltumelektrostacijas un citas sadedzināšanas iekārtas","uznemums":"AS \"Rēzeknes siltumtīkli\"","majaslapa":"http://rezeknessiltumtikli.lv/"}},{"type":"Feature","geometry":{"type":"Point","coordinates":[22.594722,56.687222]},"properties":{"kategorija":"bistams_objekts","id":"056901","nosaukums":"SIA \"SCHWENK Latvija\", Brocēnu cementa rūpnīca","adrese":"Rūpnīcas 10, Brocēni","veids":"Rūpnieciskā ražotne (E-PRTR / IED)","darbibas_kods":"3(c)(i)","darbiba":"Cements un kaļķis","uznemums":"SIA \"SCHWENK Latvija\"","majaslapa":"https://schwenk.lv/"}},{"type":"Feature","geometry":{"type":"Point","coordinates":[24.183068,56.989796]},"properties":{"kategorija":"bistams_objekts","id":"310001","nosaukums":"AS \"Latvenergo\", Rīgas TEC-1","adrese":"Viskaļu 16, Rīga","veids":"Rūpnieciskā ražotne (E-PRTR / IED)","darbibas_kods":"1(c)","darbiba":"Siltumelektrostacijas un citas sadedzināšanas iekārtas","uznemums":"AS \"Latvenergo\"","majaslapa":"https://www.latvenergo.lv/"}},{"type":"Feature","geometry":{"type":"Point","coordinates":[24.03608,56.962256]},"properties":{"kategorija":"bistams_objekts","id":"310006","nosaukums":"AS “Rīgas siltums” siltumcentrāle “Imanta”","adrese":"Kurzemes prospekts 17, Rīga","veids":"Rūpnieciskā ražotne (E-PRTR / IED)","darbibas_kods":"1(c)","darbiba":"Siltumelektrostacijas un citas sadedzināšanas iekārtas","uznemums":"AS “Rīgas siltums”","majaslapa":"https://www.rs.lv/"}},{"type":"Feature","geometry":{"type":"Point","coordinates":[24.284166,56.919167]},"properties":{"kategorija":"bistams_objekts","id":"310017","nosaukums":"AS “Latvenergo” Rīgas TEC-2","adrese":"Granīta 31, Acone, Salaspils pagasts, Salaspils novads","veids":"Rūpnieciskā ražotne (E-PRTR / IED)","darbibas_kods":"1(c)","darbiba":"Siltumelektrostacijas un citas sadedzināšanas iekārtas","uznemums":"AS “Latvenergo”","majaslapa":"https://www.latvenergo.lv/"}},{"type":"Feature","geometry":{"type":"Point","coordinates":[25.453055,57.525558]},"properties":{"kategorija":"bistams_objekts","id":"310081","nosaukums":"AS “Valmieras stikla šķiedra”","adrese":"Cempu 13, Valmiera","veids":"Rūpnieciskā ražotne (E-PRTR / IED)","darbibas_kods":"3(e)","darbiba":"Stikla ražošana","uznemums":"AS “Valmieras stikla šķiedra”","majaslapa":"https://www.valmiera-glass.com/lv"}},{"type":"Feature","geometry":{"type":"Point","coordinates":[23.806113,56.642225]},"properties":{"kategorija":"bistams_objekts","id":"310249","nosaukums":"SIA \"LODE\", Ānes ražotne","adrese":"Celtnieku 34, Āne, Cenu pag., Jelgavas novads","veids":"Rūpnieciskā ražotne (E-PRTR / IED)","darbibas_kods":"3(g)","darbiba":"Keramikas ražošana","uznemums":"SIA \"LODE\"","majaslapa":"https://lode.lv/"}},{"type":"Feature","geometry":{"type":"Point","coordinates":[25.408049,57.386385]},"properties":{"kategorija":"bistams_objekts","id":"310254","nosaukums":"SIA \"LODE\", Liepas ražotne","adrese":"Lodes 1, Liepa, Liepas pagasts, Cēsu novads","veids":"Rūpnieciskā ražotne (E-PRTR / IED)","darbibas_kods":"3(g)","darbiba":"Keramikas ražošana","uznemums":"SIA \"LODE\"","majaslapa":"https://lode.lv/"}},{"type":"Feature","geometry":{"type":"Point","coordinates":[24.146684,56.911049]},"properties":{"kategorija":"bistams_objekts","id":"310461","nosaukums":"AS \"Rīgas piena kombināts\"","adrese":"Bauskas 180, Rīga","veids":"Rūpnieciskā ražotne (E-PRTR / IED)","darbibas_kods":"8(c)","darbiba":"Pārtikas ražošana (piens, augu izejvielas)","uznemums":"AS \"Rīgas piena kombināts\"","majaslapa":"https://foodunion.lv/"}},{"type":"Feature","geometry":{"type":"Point","coordinates":[25.388893,57.526388]},"properties":{"kategorija":"bistams_objekts","id":"310511","nosaukums":"AS \"Valmieras piens\"","adrese":"Rīgas iela 93, Valmiera","veids":"Rūpnieciskā ražotne (E-PRTR / IED)","darbibas_kods":"8(c)","darbiba":"Pārtikas ražošana (piens, augu izejvielas)","uznemums":"AS \"Valmieras piens\"","majaslapa":"https://valmieraspiens.lv/"}},{"type":"Feature","geometry":{"type":"Point","coordinates":[23.170831,56.962504]},"properties":{"kategorija":"bistams_objekts","id":"310679","nosaukums":"AS \"TUKUMA PIENS\"","adrese":"Jelgavas iela 7, Tukums","veids":"Rūpnieciskā ražotne (E-PRTR / IED)","darbibas_kods":"8(c)","darbiba":"Pārtikas ražošana (piens, augu izejvielas)","uznemums":"AS \"TUKUMA PIENS\"","majaslapa":"https://baltais.lv/"}},{"type":"Feature","geometry":{"type":"Point","coordinates":[23.915879,56.796861]},"properties":{"kategorija":"bistams_objekts","id":"310751","nosaukums":"AS \"Olpha\"","adrese":"Rūpnīcu 5, Olaine","veids":"Rūpnieciskā ražotne (E-PRTR / IED)","darbibas_kods":"4(e)","darbiba":"Ķīmiskā rūpniecība (neorganiskās vielas)","uznemums":"AS „Olpha\"","majaslapa":"https://olpha.eu/"}},{"type":"Feature","geometry":{"type":"Point","coordinates":[27.092494,57.418054]},"properties":{"kategorija":"bistams_objekts","id":"310791","nosaukums":"SIA \"Alūksnes Putnu Ferma\"","adrese":"Putni, Ziemeru pagasts, Alūksnes novads","veids":"Rūpnieciskā ražotne (E-PRTR / IED)","darbibas_kods":"7(a)(i)","darbiba":"Intensīva putnu audzēšana","uznemums":"SIA \"Alūksnes Putnu Ferma\"","majaslapa":"http://www.apf.lv"}},{"type":"Feature","geometry":{"type":"Point","coordinates":[24.229169,56.593336]},"properties":{"kategorija":"bistams_objekts","id":"310853","nosaukums":"AS “Balticovo”, Iecavas pagasts","adrese":"Administratīvā ēka, Iecavas pagasts, Bauskas novads","veids":"Rūpnieciskā ražotne (E-PRTR / IED)","darbibas_kods":"7(a)(i)","darbiba":"Intensīva putnu audzēšana","uznemums":"AS “Balticovo”","majaslapa":"http://www.balticovo.lv/lv/"}},{"type":"Feature","geometry":{"type":"Point","coordinates":[26.190501,56.846942]},"properties":{"kategorija":"bistams_objekts","id":"311202","nosaukums":"AS \"Balticovo\", Ruļļi","adrese":"Ruļļi, Jaunlazdona, Lazdonas pagasts, Madonas novads","veids":"Rūpnieciskā ražotne (E-PRTR / IED)","darbibas_kods":"7(a)(i)","darbiba":"Intensīva putnu audzēšana","uznemums":"AS\"Balticovo\"","majaslapa":"http://www.balticovo.lv/lv/"}},{"type":"Feature","geometry":{"type":"Point","coordinates":[24.197981,56.829155]},"properties":{"kategorija":"bistams_objekts","id":"311329","nosaukums":"AS “Ķekava Foods”","adrese":"Putnu fabrika Ķekava, Ķekavas pagasts, Ķekavas novads","veids":"Rūpnieciskā ražotne (E-PRTR / IED)","darbibas_kods":"7(a)(i)","darbiba":"Intensīva putnu audzēšana","uznemums":"AS “Ķekava Foods”","majaslapa":"https://vistas.lv/"}},{"type":"Feature","geometry":{"type":"Point","coordinates":[24.195259,56.920011]},"properties":{"kategorija":"bistams_objekts","id":"312456","nosaukums":"AS “Grindeks”","adrese":"Krustpils 53, 71A, Rīga","veids":"Rūpnieciskā ražotne (E-PRTR / IED)","darbibas_kods":"4(e)","darbiba":"Ķīmiskā rūpniecība (neorganiskās vielas)","uznemums":"AS “Grindeks”","majaslapa":"https://grindeks.lv/lv/"}},{"type":"Feature","geometry":{"type":"Point","coordinates":[24.278892,56.931945]},"properties":{"kategorija":"bistams_objekts","id":"410056","nosaukums":"SIA \"Ulbroka\"","adrese":"Dauguļupes iela 4, Ulbroka, Stopiņu novads","veids":"Rūpnieciskā ražotne (E-PRTR / IED)","darbibas_kods":"7(a)(ii)","darbiba":"Intensīva cūku audzēšana","uznemums":"SIA \"Ulbroka\"","majaslapa":"http://ulbroka.lv/"}},{"type":"Feature","geometry":{"type":"Point","coordinates":[22.465016,56.67389]},"properties":{"kategorija":"bistams_objekts","id":"450107","nosaukums":"SIA “Druvas Unguri”, ražošanas objekts \"Jaunstraumēni\"","adrese":"Mazstraumēni, Saldus pagasts, Saldus novads","veids":"Rūpnieciskā ražotne (E-PRTR / IED)","darbibas_kods":"7(a)(ii)","darbiba":"Intensīva cūku audzēšana","uznemums":"SIA “Druvas Unguri”"}},{"type":"Feature","geometry":{"type":"Point","coordinates":[26.503061,55.840836]},"properties":{"kategorija":"bistams_objekts","id":"490121","nosaukums":"AS \"Balticovo\", Laucese","adrese":"Daugavpils putni, Laucesas pagasts, Augšdaugavas novads","veids":"Rūpnieciskā ražotne (E-PRTR / IED)","darbibas_kods":"7(a)(i)","darbiba":"Intensīva putnu audzēšana","uznemums":"AS \"Balticovo\"","majaslapa":"http://www.balticovo.lv/lv/"}},{"type":"Feature","geometry":{"type":"Point","coordinates":[26.722219,56.277497]},"properties":{"kategorija":"bistams_objekts","id":"490234","nosaukums":"AS \"Preiļu siers\"","adrese":"Daugavpils 75, Preiļi","veids":"Rūpnieciskā ražotne (E-PRTR / IED)","darbibas_kods":"8(c)","darbiba":"Pārtikas ražošana (piens, augu izejvielas)","uznemums":"AS \"Preiļu siers\"","majaslapa":"http://www.preilusiers.lv/"}},{"type":"Feature","geometry":{"type":"Point","coordinates":[24.088897,57.043611]},"properties":{"kategorija":"bistams_objekts","id":"800225","nosaukums":"AS “Rīgas siltums” siltumcentrāle “Vecmilgrāvis”","adrese":"Atlantijas 51, Rīga","veids":"Rūpnieciskā ražotne (E-PRTR / IED)","darbibas_kods":"1(c)","darbiba":"Siltumelektrostacijas un citas sadedzināšanas iekārtas","uznemums":"AS “Rīgas siltums”","majaslapa":"https://www.rs.lv/"}},{"type":"Feature","geometry":{"type":"Point","coordinates":[24.69719,57.168529]},"properties":{"kategorija":"bistams_objekts","id":"850230","nosaukums":"AS “Conexus Baltic Grid”","adrese":"Inčukalna gāzes krātuve, Krimuldas pagasts, Siguldas novads","veids":"Rūpnieciskā ražotne (E-PRTR / IED)","darbibas_kods":"1(c)","darbiba":"Siltumelektrostacijas un citas sadedzināšanas iekārtas","uznemums":"AS “Conexus Baltic Grid”","majaslapa":"https://www.conexus.lv/"}},{"type":"Feature","geometry":{"type":"Point","coordinates":[23.926997,56.796329]},"properties":{"kategorija":"bistams_objekts","id":"854543","nosaukums":"SIA “Olaines ķīmiskā rūpnīca \"BIOLARS\"”","adrese":"Rūpnīcu 3, Olaine","veids":"Rūpnieciskā ražotne (E-PRTR / IED)","darbibas_kods":"4(a)(x)","darbiba":"Ķīmiskā rūpniecība","uznemums":"SIA “Olaines ķīmiskā rūpnīca \"BIOLARS\"”","majaslapa":"https://www.biolar.lv/"}},{"type":"Feature","geometry":{"type":"Point","coordinates":[21.577506,57.402188]},"properties":{"kategorija":"bistams_objekts","id":"860462","nosaukums":"AS \"Ventbunkers\"","adrese":"Dzintaru 90, Ventspils","veids":"Rūpnieciskā ražotne (E-PRTR / IED)","darbibas_kods":"5(a)","darbiba":"Bīstamo atkritumu apsaimniekošana","uznemums":"AS \"Ventbunkers\"","majaslapa":"https://www.ventbunkers.lv/"}},{"type":"Feature","geometry":{"type":"Point","coordinates":[22.4844,56.698565]},"properties":{"kategorija":"bistams_objekts","id":"870564","nosaukums":"SIA “Druvas Unguri”, komplekss \"Unguri\"","adrese":"Birztalas, Saldus pagasts, Saldus novads,","veids":"Rūpnieciskā ražotne (E-PRTR / IED)","darbibas_kods":"7(a)(iii)","darbiba":"Intensīva sivēnmāšu audzēšana","uznemums":"SIA “Druvas Unguri”","majaslapa":"https://www.druvasunguri.lv/"}},{"type":"Feature","geometry":{"type":"Point","coordinates":[21.892484,56.657044]},"properties":{"kategorija":"bistams_objekts","id":"870816","nosaukums":"SIA “Korkalns”, cūku audzēšanas komplekss","adrese":"Stari, Rudbāržu pagasts, Kuldīgas novads","veids":"Rūpnieciskā ražotne (E-PRTR / IED)","darbibas_kods":"7(a)(ii)","darbiba":"Intensīva cūku audzēšana","uznemums":"SIA “Korkalns”"}},{"type":"Feature","geometry":{"type":"Point","coordinates":[25.645562,56.568887]},"properties":{"kategorija":"bistams_objekts","id":"890264","nosaukums":"SIA \"Agrofirma Turība\", cūku komplekss \"Stiebriņi\"","adrese":"Stiebriņi, Sēlpils pagasts, Jēkabpils novads","veids":"Rūpnieciskā ražotne (E-PRTR / IED)","darbibas_kods":"7(a)(ii)","darbiba":"Intensīva cūku audzēšana","uznemums":"SIA \"Sēļi\""}},{"type":"Feature","geometry":{"type":"Point","coordinates":[24.059836,57.019768]},"properties":{"kategorija":"bistams_objekts","id":"953592","nosaukums":"SIA “KRONOSPAN Riga\"","adrese":"Daugavgrīvas šoseja 7B, Rīga","veids":"Rūpnieciskā ražotne (E-PRTR / IED)","darbibas_kods":"6(b)","darbiba":"Papīra un kartona ražošana","uznemums":"SIA “KRONOSPAN Riga\"","majaslapa":"https://kronospan.com/lv_LV/"}},{"type":"Feature","geometry":{"type":"Point","coordinates":[26.166393,56.520003]},"properties":{"kategorija":"bistams_objekts","id":"RAEISO","nosaukums":"SIA \"Vidusdaugavas starppašvaldību atkritumu apsaimniekošanas organizācija\" (SPAAO), Vidusdaugavas reģiona sadzīves atkritumu poligons „DZIĻĀ VĀDA”","adrese":"Dziļā Vāda, Mežāres pagasts, Jēkabpils novads","veids":"Rūpnieciskā ražotne (E-PRTR / IED)","darbibas_kods":"5(c)","darbiba":"Nebīstamo atkritumu apsaimniekošana","uznemums":"SIA \"Vidusdaugavas SPAAO\"","majaslapa":"http://www.spaao.lv/"}},{"type":"Feature","geometry":{"type":"Point","coordinates":[26.504723,55.749994]},"properties":{"kategorija":"bistams_objekts","id":"RBGCWT","nosaukums":"SIA “Atkritumu apsaimniekošanas Dienvidlatgales starppašvaldību organizācija”, Cieto sadzīves atkritumu apglabāšanas poligons „Cinīši”","adrese":"Cinīši, Demenes pagasts, Augšdaugavas novads","veids":"Rūpnieciskā ražotne (E-PRTR / IED)","darbibas_kods":"5(c)","darbiba":"Nebīstamo atkritumu apsaimniekošana","uznemums":"SIA “Atkritumu apsaimniekošanas Dienvidlatgales starppašvaldību organizācija\"","majaslapa":"http://www.aadso.lv/"}},{"type":"Feature","geometry":{"type":"Point","coordinates":[24.418681,56.907799]},"properties":{"kategorija":"bistams_objekts","id":"RBVPJU","nosaukums":"SIA \"ANCERS\", cūku audzēšanas komplekss","adrese":"Bunči 1, Salaspils pagasts, Salaspils novads","veids":"Rūpnieciskā ražotne (E-PRTR / IED)","darbibas_kods":"7(a)(ii)","darbiba":"Intensīva cūku audzēšana","uznemums":"SIA \"ANCERS\""}},{"type":"Feature","geometry":{"type":"Point","coordinates":[22.837784,56.587777]},"properties":{"kategorija":"bistams_objekts","id":"RCEKFE","nosaukums":"Valsts SIA \"Latvijas Vides, ģeoloģijas un meteoroloģijas centrs\", Bīstamo atkritumu apglabāšanas poligons \"ZEBRENE\"","adrese":"Atkritumu poligons Zebrene, Zebrenes pagasts, Dobeles novads","veids":"Rūpnieciskā ražotne (E-PRTR / IED)","darbibas_kods":"5(a)","darbiba":"Bīstamo atkritumu apsaimniekošana","uznemums":"SIA \"Latvijas Vides, ģeoloģijas un meteoroloģijas centrs\"","majaslapa":"https://videscentrs.lvgmc.lv/"}},{"type":"Feature","geometry":{"type":"Point","coordinates":[23.795278,56.655836]},"properties":{"kategorija":"bistams_objekts","id":"RCOTYF","nosaukums":"SIA \"LATVIJAS PIENS\"","adrese":"Langervaldes iela 7, Jelgava","veids":"Rūpnieciskā ražotne (E-PRTR / IED)","darbibas_kods":"8(c)","darbiba":"Pārtikas ražošana (piens, augu izejvielas)","uznemums":"SIA \"LATVIJAS PIENS\"","majaslapa":"http://www.lvpiens.lv/lv/"}},{"type":"Feature","geometry":{"type":"Point","coordinates":[24.095405,56.933183]},"properties":{"kategorija":"bistams_objekts","id":"RCZSGC","nosaukums":"SIA „Rīgas satiksme”","adrese":"Vienības gatve 12, Rīga","veids":"Rūpnieciskā ražotne (E-PRTR / IED)","darbibas_kods":"1(b)","darbiba":"Naftas un gāzes pārstrāde","uznemums":"SIA „Rīgas satiksme”","majaslapa":"https://www.rigassatiksme.lv/lv/"}},{"type":"Feature","geometry":{"type":"Point","coordinates":[21.011948,56.395556]},"properties":{"kategorija":"bistams_objekts","id":"RDTCPZ","nosaukums":"SIA „Nīcas Rukši”, Nīcas pagasts","adrese":"Rukši, Nīcas pagasts, Dienvidkurzemes novads","veids":"Rūpnieciskā ražotne (E-PRTR / IED)","darbibas_kods":"7(a)(iii)","darbiba":"Intensīva sivēnmāšu audzēšana","uznemums":"SIA „Nīcas Rukši”"}},{"type":"Feature","geometry":{"type":"Point","coordinates":[24.285807,56.918836]},"properties":{"kategorija":"bistams_objekts","id":"RGLEKO","nosaukums":"SIA \"All recycling\"","adrese":"Granīta 31 k-5, 31 k-18, Acone, Salaspils pagasts, Salaspils novads","veids":"Rūpnieciskā ražotne (E-PRTR / IED)","darbibas_kods":"2(e)(ii)","darbiba":"Krāsainie metāli","uznemums":"SIA \"All recycling\"","majaslapa":"http://allrecycling.lv/"}},{"type":"Feature","geometry":{"type":"Point","coordinates":[24.260897,56.88532]},"properties":{"kategorija":"bistams_objekts","id":"RGQYHV","nosaukums":"SIA \"MOSK 1\"","adrese":"Kaudzīšu 57, Rumbula, Stopiņu pagasts, Ropažu novads","veids":"Rūpnieciskā ražotne (E-PRTR / IED)","darbibas_kods":"5(a)","darbiba":"Bīstamo atkritumu apsaimniekošana","uznemums":"SIA \"MOSK 1\"","majaslapa":"https://mosk.lv/"}},{"type":"Feature","geometry":{"type":"Point","coordinates":[24.260837,56.885278]},"properties":{"kategorija":"bistams_objekts","id":"RHWBLI","nosaukums":"SIA „Vides resursu centrs”","adrese":"Kaudzīšu 57, Rumbula, Stopiņu pagasts, Ropažu novads","veids":"Rūpnieciskā ražotne (E-PRTR / IED)","darbibas_kods":"5(c)","darbiba":"Nebīstamo atkritumu apsaimniekošana","uznemums":"SIA „Vides resursu centrs”"}},{"type":"Feature","geometry":{"type":"Point","coordinates":[25.363897,57.86889]},"properties":{"kategorija":"bistams_objekts","id":"RJGOZN","nosaukums":"SIA \"Kunturi\"","adrese":"Kunturi, Jeru pagasts, Valmieras novads","veids":"Rūpnieciskā ražotne (E-PRTR / IED)","darbibas_kods":"7(a)(ii)","darbiba":"Intensīva cūku audzēšana","uznemums":"SIA \"Kunturi\"","majaslapa":"https://kunturi.lv/"}},{"type":"Feature","geometry":{"type":"Point","coordinates":[24.177774,56.301107]},"properties":{"kategorija":"bistams_objekts","id":"RKLPKS","nosaukums":"SIA \"UZVARA-STRAUTI\", Uzvara-Strauti SIA un Uzvara-Birzgaļi SIA cūku nobarošanas komplekss \"STRAUTI\"","adrese":"Strauti, Gailīšu pagasts, Bauskas novads","veids":"Rūpnieciskā ražotne (E-PRTR / IED)","darbibas_kods":"7(a)(ii)","darbiba":"Intensīva cūku audzēšana","uznemums":"SIA \"UZVARA-STRAUTI\""}},{"type":"Feature","geometry":{"type":"Point","coordinates":[21.539997,57.265559]},"properties":{"kategorija":"bistams_objekts","id":"RLKDWC","nosaukums":"SIA \"Ventspils labiekārtošanas kombināts\", Cieto sadzīves atkritumu poligons „Pentuļi”","adrese":"Pentuļi, Vārves pagasts, Ventspils novads","veids":"Rūpnieciskā ražotne (E-PRTR / IED)","darbibas_kods":"5(c)","darbiba":"Nebīstamo atkritumu apsaimniekošana","uznemums":"SIA \"Ventspils labiekārtošanas kombināts\"","majaslapa":"http://vlk.lv/"}},{"type":"Feature","geometry":{"type":"Point","coordinates":[22.648054,57.282219]},"properties":{"kategorija":"bistams_objekts","id":"RLVESD","nosaukums":"SIA „Atkritumu apsaimniekošanas sabiedrība „Piejūra”\", Sadzīves atkritumu poligons „Janvāri”","adrese":"Janvāri, Laidzes pagasts, Talsu novads","veids":"Rūpnieciskā ražotne (E-PRTR / IED)","darbibas_kods":"5(d)","darbiba":"Atkritumu poligons","uznemums":"SIA „Atkritumu apsaimniekošanas sabiedrība „Piejūra”\"","majaslapa":"https://piejuraatkritumi.lv/"}},{"type":"Feature","geometry":{"type":"Point","coordinates":[21.046947,56.539724]},"properties":{"kategorija":"bistams_objekts","id":"RMXWXU","nosaukums":"LSEZ \"DG Termināls\"","adrese":"Pulvera 33, Liepaja","veids":"Rūpnieciskā ražotne (E-PRTR / IED)","darbibas_kods":"5(a)","darbiba":"Bīstamo atkritumu apsaimniekošana","uznemums":"LSEZ \"DG Termināls\"","majaslapa":"http://www.dgterminals.lv/lv/"}},{"type":"Feature","geometry":{"type":"Point","coordinates":[24.000471,57.025965]},"properties":{"kategorija":"bistams_objekts","id":"RNDBQV","nosaukums":"SIA \"Rīgas ūdens\" Bioloģiskās attīrīšanas stacija \"Daugavgrīva\"","adrese":"Dzintara 60, Rīga","veids":"Rūpnieciskā ražotne (E-PRTR / IED)","darbibas_kods":"5(f)","darbiba":"Pilsētas notekūdeņu attīrīšana","uznemums":"SIA \"Rīgas ūdens\"","majaslapa":"https://www.rigasudens.lv/"}},{"type":"Feature","geometry":{"type":"Point","coordinates":[21.049472,56.529453]},"properties":{"kategorija":"bistams_objekts","id":"RNLGYU","nosaukums":"SIA „ICS STEEL\"","adrese":"Meldru iela 8, Liepāja","veids":"Rūpnieciskā ražotne (E-PRTR / IED)","darbibas_kods":"2(c)(i)","darbiba":"Melno metālu apstrāde","uznemums":"SIA „ICS STEEL\"","majaslapa":"https://icssteel.eu/"}},{"type":"Feature","geometry":{"type":"Point","coordinates":[24.661112,57.461113]},"properties":{"kategorija":"bistams_objekts","id":"RNQNGW","nosaukums":"SIA ''Grow Energy\", ražotne \"Gravas\"","adrese":"Ražotne Gravas, Limbažu pagasts, Limbažu novads","veids":"Rūpnieciskā ražotne (E-PRTR / IED)","darbibas_kods":"5(e)","darbiba":"Dzīvnieku atliekas","uznemums":"SIA ''Grow Energy\""}},{"type":"Feature","geometry":{"type":"Point","coordinates":[23.710954,56.635128]},"properties":{"kategorija":"bistams_objekts","id":"ROUXQO","nosaukums":"SIA \"Gren Latvija\", biokurināmā koģenerācijas stacija","adrese":"Rūpniecības 73A, Jelgava","veids":"Rūpnieciskā ražotne (E-PRTR / IED)","darbibas_kods":"1(c)","darbiba":"Siltumelektrostacijas un citas sadedzināšanas iekārtas","uznemums":"SIA \"Gren Latvija\"","majaslapa":"https://gren.com/lv/"}},{"type":"Feature","geometry":{"type":"Point","coordinates":[23.998888,56.538612]},"properties":{"kategorija":"bistams_objekts","id":"RPCOXR","nosaukums":"SIA \"I.T.Soil\", bīstamo un sadzīves atkritumu uzglabāšanas, pārstrādes iekārtas","adrese":"Akači, Salgales pagasts, Jelgavas novads","veids":"Rūpnieciskā ražotne (E-PRTR / IED)","darbibas_kods":"5(a)","darbiba":"Bīstamo atkritumu apsaimniekošana","uznemums":"SIA \"I.T.Soil\""}},{"type":"Feature","geometry":{"type":"Point","coordinates":[23.93584,56.794726]},"properties":{"kategorija":"bistams_objekts","id":"RRDBFO","nosaukums":"AS \"BAO\" Kaudzīšu","adrese":"Kaudzīšu 57, Rumbula, Stopiņu novads","veids":"Rūpnieciskā ražotne (E-PRTR / IED)","darbibas_kods":"5(a)","darbiba":"Bīstamo atkritumu apsaimniekošana","uznemums":"AS \"BAO\""}},{"type":"Feature","geometry":{"type":"Point","coordinates":[24.177785,56.397501]},"properties":{"kategorija":"bistams_objekts","id":"RSHNLG","nosaukums":"SIA \"BALTIC DAIRY BOARD\"","adrese":"Stacijas iela 1, 2, 2a, Bauska","veids":"Rūpnieciskā ražotne (E-PRTR / IED)","darbibas_kods":"8(c)","darbiba":"Pārtikas ražošana (piens, augu izejvielas)","uznemums":"SIA \"BALTIC DAIRY BOARD\"","majaslapa":"http://www.bdb.lv/"}},{"type":"Feature","geometry":{"type":"Point","coordinates":[24.054173,57.021666]},"properties":{"kategorija":"bistams_objekts","id":"RUDYYZ","nosaukums":"SIA \"CORVUS COMPANY\"","adrese":"Daugavgrīvas šoseja 7D, Rīga","veids":"Rūpnieciskā ražotne (E-PRTR / IED)","darbibas_kods":"5(a)","darbiba":"Bīstamo atkritumu apsaimniekošana","uznemums":"SIA \"CORVUS COMPANY\"","majaslapa":"http://corvus.lv/"}},{"type":"Feature","geometry":{"type":"Point","coordinates":[23.028618,56.925554]},"properties":{"kategorija":"bistams_objekts","id":"RUFZZX","nosaukums":"SIA „Nīca 1”, cūku novietne \"Augšluikas\"","adrese":"Augšluikas, Tumes pagasts, Tukuma novads","veids":"Rūpnieciskā ražotne (E-PRTR / IED)","darbibas_kods":"7(a)(ii)","darbiba":"Intensīva cūku audzēšana","uznemums":"SIA „Nīca 1”"}},{"type":"Feature","geometry":{"type":"Point","coordinates":[24.47695,56.287504]},"properties":{"kategorija":"bistams_objekts","id":"RUPSYD","nosaukums":"SIA \"GAIŽĒNI\", Cūkkopības komplekss \"TUNKŪNI\"","adrese":"Cūkkopības komplekss TUNKŪNI, Brūveri, Brunavas pag., Bauska novads","veids":"Rūpnieciskā ražotne (E-PRTR / IED)","darbibas_kods":"7(a)(ii)","darbiba":"Intensīva cūku audzēšana","uznemums":"SIA \"GAIŽĒNI\"","majaslapa":"http://www.livlande.lv/kontakti.html"}},{"type":"Feature","geometry":{"type":"Point","coordinates":[23.543341,56.661941]},"properties":{"kategorija":"bistams_objekts","id":"RVTKDL","nosaukums":"SIA \"Jelgavas komunālie pakalpojumi\"","adrese":"Brakšķi, Līvbērzes pagasts, Jelgavas novads","veids":"Rūpnieciskā ražotne (E-PRTR / IED)","darbibas_kods":"5(c)","darbiba":"Nebīstamo atkritumu apsaimniekošana","uznemums":"SIA \"Jelgavas komunālie pakalpojumi\"","majaslapa":"http://www.komunalie.lv/"}},{"type":"Feature","geometry":{"type":"Point","coordinates":[25.093892,56.844447]},"properties":{"kategorija":"bistams_objekts","id":"RYBHJY","nosaukums":"SIA \"Baltic Pork\", Cūkkopības komplekss „Rukši”","adrese":"Rukši, Lauberes pagasts, Ogres novads","veids":"Rūpnieciskā ražotne (E-PRTR / IED)","darbibas_kods":"7(a)(ii)","darbiba":"Intensīva cūku audzēšana","uznemums":"SIA \"Baltic Pork\"","majaslapa":"https://balticpork.com/"}},{"type":"Feature","geometry":{"type":"Point","coordinates":[23.616655,56.795781]},"properties":{"kategorija":"bistams_objekts","id":"RYNUTC","nosaukums":"SIA \"EcoLead\"","adrese":"Jelgavas iela 21, Kalnciems, Kalnciema pagasts, Jelgavas novads","veids":"Rūpnieciskā ražotne (E-PRTR / IED)","darbibas_kods":"2(e)(ii)","darbiba":"Krāsainie metāli","uznemums":"SIA \"EcoLead\"","majaslapa":"http://www.lbr.lv/"}},{"type":"Feature","geometry":{"type":"Point","coordinates":[23.038641,56.92488]},"properties":{"kategorija":"bistams_objekts","id":"RZCAIO","nosaukums":"AS \"BAO\", \"Tumes ITP centrs\"","adrese":"Tumes ITP centrs, Tumes pagasts, Tukuma novads","veids":"Rūpnieciskā ražotne (E-PRTR / IED)","darbibas_kods":"5(a)","darbiba":"Bīstamo atkritumu apsaimniekošana","uznemums":"AS BAO","majaslapa":"https://bao.lv"}},{"type":"Feature","geometry":{"type":"Point","coordinates":[25.738062,56.39306]},"properties":{"kategorija":"bistams_objekts","id":"RZFSWF","nosaukums":"SIA \"Miķelāni bekons\" cūku nobarošanas komplekss \"Miķelāni\"","adrese":"Miķelāni, Salas pagasts, Jēkabpils novads","veids":"Rūpnieciskā ražotne (E-PRTR / IED)","darbibas_kods":"7(a)(ii)","darbiba":"Intensīva cūku audzēšana","uznemums":"SIA \"Miķelāni bekons\""}}]}