{"type":"FeatureCollection","features":[{"type":"Feature","geometry":{"type":"Point","coordinates":[25.2835,57.315249]},"properties":{"kategorija":"veterinars","id":"node/10204860779","nosaukums":"Veterinārā klīnika Tedijs","adrese":"Uzvaras bulvāris 30, Cēsis","name":"Veterinārā klīnika Tedijs","opening_hours":"Mo-Fr 09:00-17:30, Sa 09:00-14:00","website":"http://tedijs.lv"}},{"type":"Feature","geometry":{"type":"Point","coordinates":[24.130148,56.963523]},"properties":{"kategorija":"veterinars","id":"node/10755400705","nosaukums":"Veterinārā Klīnika","adrese":"Aristida Briāna iela 12, Rīga","name":"Veterinārā Klīnika","opening_hours":"Mo-Fr 11:00-17:00"}},{"type":"Feature","geometry":{"type":"Point","coordinates":[21.600635,57.401784]},"properties":{"kategorija":"veterinars","id":"node/10759298758","nosaukums":"Veterinārā klīnika","adrese":"Tārgales iela 48, Ventspils"}},{"type":"Feature","geometry":{"type":"Point","coordinates":[24.10157,56.968019]},"properties":{"kategorija":"veterinars","id":"node/10931179609","nosaukums":"NB VET","adrese":"Pētersalas iela 17, Rīga","name":"NB VET","opening_hours":"Mo-Fr 13:00-20:00","website":"https://nbvet.lv/"}},{"type":"Feature","geometry":{"type":"Point","coordinates":[23.72082,56.652061]},"properties":{"kategorija":"veterinars","id":"node/10931265233","nosaukums":"Zemgales veterinārais centrs","adrese":"Krišjāņa Barona iela 17, Jelgava","name":"Zemgales veterinārais centrs","opening_hours":"24/7","website":"http://www.vetcentrs.lv/veterinaras-klinikas/veterinara-klinika-jelgava/","emergency":"yes"}},{"type":"Feature","geometry":{"type":"Point","coordinates":[23.722309,56.962327]},"properties":{"kategorija":"veterinars","id":"node/10972043419","nosaukums":"Mellužu veterinārā klīnika","adrese":"Dārzu iela 9, Jūrmala","name":"Mellužu veterinārā klīnika","opening_hours":"Mo-Fr 10:00-16:00; Sa 10:00-14:00","website":"http://www.vetmelluzi.lv"}},{"type":"Feature","geometry":{"type":"Point","coordinates":[24.852574,57.143647]},"properties":{"kategorija":"veterinars","id":"node/11126315443","nosaukums":"Veterinārā klīnika","adrese":"Ventas iela 12, Sigulda"}},{"type":"Feature","geometry":{"type":"Point","coordinates":[24.127304,56.94046]},"properties":{"kategorija":"veterinars","id":"node/11230781939","nosaukums":"zoocentrs.lv","adrese":"Elijas iela 21A, Rīga","name":"zoocentrs.lv"}},{"type":"Feature","geometry":{"type":"Point","coordinates":[24.186414,56.958689]},"properties":{"kategorija":"veterinars","id":"node/11395512870","nosaukums":"Dino Zoo Stirnas","adrese":"Stirnu iela 26, Rīga","name":"Dino Zoo Stirnas","opening_hours":"Mo-Su 09:00-20:00","website":"https://dinozoopasaule.lv/lv/klinikas-un-aptiekas/kontakti"}},{"type":"Feature","geometry":{"type":"Point","coordinates":[26.209675,56.856514]},"properties":{"kategorija":"veterinars","id":"node/11447376565","nosaukums":"Veterinārā klīnika","adrese":"Raiņa iela 34, Madona"}},{"type":"Feature","geometry":{"type":"Point","coordinates":[24.865704,57.156766]},"properties":{"kategorija":"veterinars","id":"node/11599566093","nosaukums":"Dr. Nartiša veterinārā prakse","adrese":"Dārza iela 29A, Sigulda","name":"Dr. Nartiša veterinārā prakse","opening_hours":"Mo-Fr 12:00-19:00, Sa 10:00-15:00"}},{"type":"Feature","geometry":{"type":"Point","coordinates":[23.936217,56.785437]},"properties":{"kategorija":"veterinars","id":"node/11891019821","nosaukums":"Veterinārā klīnika","adrese":"Kūdras iela 27, Olaine"}},{"type":"Feature","geometry":{"type":"Point","coordinates":[24.145213,56.960488]},"properties":{"kategorija":"veterinars","id":"node/1199498806","nosaukums":"Terion","adrese":"Laboratorijas iela 2A, Rīga","name":"Terion","opening_hours":"Mo-Su,PH 09:00-19:00"}},{"type":"Feature","geometry":{"type":"Point","coordinates":[23.150392,56.969565]},"properties":{"kategorija":"veterinars","id":"node/12090259543","nosaukums":"Veterinārā klīnika","adrese":"Aleksandra iela 1, Tukums"}},{"type":"Feature","geometry":{"type":"Point","coordinates":[23.723782,56.65229]},"properties":{"kategorija":"veterinars","id":"node/12137326755","nosaukums":"Ķepu nams","adrese":"Lielā iela 8, Jelgava","name":"Ķepu nams"}},{"type":"Feature","geometry":{"type":"Point","coordinates":[24.189846,56.907547]},"properties":{"kategorija":"veterinars","id":"node/12393477167","nosaukums":"Veterinārā klīnika","adrese":"Bultu iela 3, Rīga"}},{"type":"Feature","geometry":{"type":"Point","coordinates":[22.495143,56.664498]},"properties":{"kategorija":"veterinars","id":"node/12423474304","nosaukums":"Anitas Veterinārais serviss","adrese":"Striķu iela 9, Saldus","name":"Anitas Veterinārais serviss","opening_hours":"Mo-Fr 09:00-18:00; Sa 09:00-15:00","website":"https://anitasvetserviss.lv"}},{"type":"Feature","geometry":{"type":"Point","coordinates":[24.174393,56.95931]},"properties":{"kategorija":"veterinars","id":"node/1248046415","nosaukums":"Lion","adrese":"Nīcgales iela 2, Rīga","name":"Lion","opening_hours":"Mo-Fr 09:00-19:00; Sa 09:00-18:00"}},{"type":"Feature","geometry":{"type":"Point","coordinates":[24.182841,56.907832]},"properties":{"kategorija":"veterinars","id":"node/12620718284","nosaukums":"Veterinārā klīnika","adrese":"Latgales iela 264, Rīga","opening_hours":"Mo-Fr 10:00-19:00; Sa 10:00-16:00"}},{"type":"Feature","geometry":{"type":"Point","coordinates":[24.126428,56.995272]},"properties":{"kategorija":"veterinars","id":"node/12862474970","nosaukums":"Veterinārā klīnika","adrese":"Sarkandaugavas iela 2, Rīga","opening_hours":"Mo-Fr 09:00-18:00; Sa 10:00-16:00"}},{"type":"Feature","geometry":{"type":"Point","coordinates":[24.348022,56.954724]},"properties":{"kategorija":"veterinars","id":"node/13038820334","nosaukums":"Veterinārā klīnika “Ulubele”","adrese":"","name":"Veterinārā klīnika “Ulubele”"}},{"type":"Feature","geometry":{"type":"Point","coordinates":[24.812572,56.71731]},"properties":{"kategorija":"veterinars","id":"node/13119591757","nosaukums":"Veterinārā klīnika","adrese":"Lāčplēša iela 17, Lielvārde"}},{"type":"Feature","geometry":{"type":"Point","coordinates":[25.418968,57.538754]},"properties":{"kategorija":"veterinars","id":"node/13260036476","nosaukums":"caps zoo","adrese":"Kārļa Baumaņa iela 9, Valmiera","name":"caps zoo"}},{"type":"Feature","geometry":{"type":"Point","coordinates":[22.491795,56.66099]},"properties":{"kategorija":"veterinars","id":"node/13397958296","nosaukums":"Žunda M.","adrese":"Skolas iela 2C, Saldus","name":"Žunda M."}},{"type":"Feature","geometry":{"type":"Point","coordinates":[24.232211,56.971954]},"properties":{"kategorija":"veterinars","id":"node/13414348730","nosaukums":"Veile","adrese":"Mežciema iela 14, Rīga","name":"Veile"}},{"type":"Feature","geometry":{"type":"Point","coordinates":[23.912554,56.943825]},"properties":{"kategorija":"veterinars","id":"node/13546015638","nosaukums":"Vets","adrese":"Jūrmalas iela 14, Piņķi","name":"Vets","opening_hours":"Mo-Fr 10:00-19:00; Sa 10:00-17:00","website":"https://vets.lv"}},{"type":"Feature","geometry":{"type":"Point","coordinates":[24.184,56.978731]},"properties":{"kategorija":"veterinars","id":"node/13679498569","nosaukums":"Teikas veterinārā klīnika","adrese":"Brīvības gatve 263, Rīga","name":"Teikas veterinārā klīnika"}},{"type":"Feature","geometry":{"type":"Point","coordinates":[24.357952,57.753132]},"properties":{"kategorija":"veterinars","id":"node/14129181350","nosaukums":"Veterinārais Serviss","adrese":"Rīgas iela 1, Salacgrīva","name":"Veterinārais Serviss","opening_hours":"Mo-Fr 08:00-17:30; Sa 08:30-13:00"}},{"type":"Feature","geometry":{"type":"Point","coordinates":[26.561822,55.893209]},"properties":{"kategorija":"veterinars","id":"node/1419851370","nosaukums":"Veikals \"Runcis C\"","adrese":"Cialkovska iela 4, Daugavpils","name":"Veikals \"Runcis C\""}},{"type":"Feature","geometry":{"type":"Point","coordinates":[23.762545,56.661862]},"properties":{"kategorija":"veterinars","id":"node/1595988919","nosaukums":"Veterinārā klīnika","adrese":"Kristapa Helmaņa iela 8, Jelgava","name":"Veterinārā klīnika","operator":"LBTU","opening_hours":"24/7","emergency":"yes"}},{"type":"Feature","geometry":{"type":"Point","coordinates":[24.127403,57.006228]},"properties":{"kategorija":"veterinars","id":"node/1705307037","nosaukums":"ALFA VET","adrese":"Viestura prospekts 73, Rīga","name":"ALFA VET"}},{"type":"Feature","geometry":{"type":"Point","coordinates":[24.614656,56.819658]},"properties":{"kategorija":"veterinars","id":"node/1719111022","nosaukums":"Ogres veterinārā aptieka - ambulance","adrese":"Brīvības iela 39, Ogre","name":"Ogres veterinārā aptieka - ambulance","opening_hours":"Tu-Fr 09:00-13:00,15:00-19:00; Sa 09:00-15:00; Su 10:00-14:00","website":"http://www.ogresvetambulance.lv"}},{"type":"Feature","geometry":{"type":"Point","coordinates":[24.849704,57.153524]},"properties":{"kategorija":"veterinars","id":"node/1736004487","nosaukums":"Veterinārā ambulance","adrese":"Krišjāņa Valdemāra iela 1C, Sigulda","name":"Veterinārā ambulance","opening_hours":"Mo-Su 08:00-17:00","emergency":"yes"}},{"type":"Feature","geometry":{"type":"Point","coordinates":[24.848268,57.158438]},"properties":{"kategorija":"veterinars","id":"node/1737517246","nosaukums":"J. Grizāna veterinārā prakse","adrese":"Leona Paegles iela 9, Sigulda","name":"J. Grizāna veterinārā prakse","opening_hours":"Mo-Fr 09:00-18:00; Sa 09:00-16:00"}},{"type":"Feature","geometry":{"type":"Point","coordinates":[22.492019,56.66468]},"properties":{"kategorija":"veterinars","id":"node/1773397379","nosaukums":"Veterinārā klīnika","adrese":"Lielā iela 4, Saldus"}},{"type":"Feature","geometry":{"type":"Point","coordinates":[24.126306,56.951796]},"properties":{"kategorija":"veterinars","id":"node/1806335492","nosaukums":"Frančeska Vet","adrese":"Blaumaņa iela 29, Rīga","name":"Frančeska Vet","opening_hours":"Mo-Fr 09:00-17:00","website":"https://www.vetvet.lv"}},{"type":"Feature","geometry":{"type":"Point","coordinates":[23.614293,56.950947]},"properties":{"kategorija":"veterinars","id":"node/1894158067","nosaukums":"Slokas Veterinārā Ambulance","adrese":"Tirzas iela 37, Jūrmala","name":"Slokas Veterinārā Ambulance","opening_hours":"Mo-Fr 09:00-19:00; Sa 09:00-15:00"}},{"type":"Feature","geometry":{"type":"Point","coordinates":[23.60372,56.962011]},"properties":{"kategorija":"veterinars","id":"node/1904894084","nosaukums":"Jūrmalas veterinārā klīnika","adrese":"Skolas iela 50, Jūrmala","name":"Jūrmalas veterinārā klīnika","opening_hours":"Mo-Fr 10:00-19:00; Sa,Su 10:00-15:00"}},{"type":"Feature","geometry":{"type":"Point","coordinates":[26.516774,55.868257]},"properties":{"kategorija":"veterinars","id":"node/2441167647","nosaukums":"Veterinārā klīnika","adrese":"Lāčplēša iela 14A, Daugavpils","name":"Veterinārā klīnika","opening_hours":"Mo-Fr 09:00-12:00,17:00-18:00; We 09:00-12:00; Sa 10:00-12:00"}},{"type":"Feature","geometry":{"type":"Point","coordinates":[24.240167,56.988948]},"properties":{"kategorija":"veterinars","id":"node/2779871226","nosaukums":"Vetcentrs","adrese":"Brīvības gatve 430, Rīga","name":"Vetcentrs"}},{"type":"Feature","geometry":{"type":"Point","coordinates":[24.185856,56.979714]},"properties":{"kategorija":"veterinars","id":"node/2892701518","nosaukums":"Veterinārā klīnika","adrese":"Brīvības gatve 271, Rīga"}},{"type":"Feature","geometry":{"type":"Point","coordinates":[24.005548,56.947424]},"properties":{"kategorija":"veterinars","id":"node/3138394606","nosaukums":"Lion","adrese":"Ruses iela 9, Rīga","name":"Lion","opening_hours":"Mo-Fr 10:00-19:00; Sa 10:00-15:00","website":"https://lionvet.lv/"}},{"type":"Feature","geometry":{"type":"Point","coordinates":[23.790724,56.688855]},"properties":{"kategorija":"veterinars","id":"node/3188802234","nosaukums":"Ozolnieku veterinārā klīnika","adrese":"Meliorācijas iela 2, Ozolnieki","name":"Ozolnieku veterinārā klīnika"}},{"type":"Feature","geometry":{"type":"Point","coordinates":[24.049392,56.941058]},"properties":{"kategorija":"veterinars","id":"node/3442476805","nosaukums":"Pet City","adrese":"Fridriha Candera iela 4, Rīga","name":"Pet City","opening_hours":"24/7","website":"https://www.petcity.lv/veikali/petcity-candera-klinika/","emergency":"yes"}},{"type":"Feature","geometry":{"type":"Point","coordinates":[24.142961,56.964918]},"properties":{"kategorija":"veterinars","id":"node/3692916150","nosaukums":"VetVesta","adrese":"Brīvības iela 156 k-1, Rīga","name":"VetVesta","opening_hours":"Mo-Fr 10:00-20:00; Sa 10:00-16:00"}},{"type":"Feature","geometry":{"type":"Point","coordinates":[24.071776,56.945015]},"properties":{"kategorija":"veterinars","id":"node/3763708426","nosaukums":"Mazo brāļu hospitālis","adrese":"Kalnciema iela 19, Rīga","name":"Mazo brāļu hospitālis","opening_hours":"Mo-Fr 09:00-20:00; Sa-Su 10:00-15:00","website":"https://www.mbh.lv"}},{"type":"Feature","geometry":{"type":"Point","coordinates":[24.718915,56.743363]},"properties":{"kategorija":"veterinars","id":"node/3802278664","nosaukums":"Veterinārā klīnika","adrese":"Ķeguma prospekts 4A, Ķegums"}},{"type":"Feature","geometry":{"type":"Point","coordinates":[23.838893,56.681236]},"properties":{"kategorija":"veterinars","id":"node/4047599043","nosaukums":"Veterinārā klīnika","adrese":"Upes iela 4, Brankas"}},{"type":"Feature","geometry":{"type":"Point","coordinates":[25.898902,57.425162]},"properties":{"kategorija":"veterinars","id":"node/4081010341","nosaukums":"Vetprakse","adrese":"Audēju iela 3, Smiltene","name":"Vetprakse","opening_hours":"Mo-Fr 09:00-17:00; Sa 09:00-14:00","website":"https://vetprakse.lv/"}},{"type":"Feature","geometry":{"type":"Point","coordinates":[24.322173,57.080492]},"properties":{"kategorija":"veterinars","id":"node/4103191197","nosaukums":"Purni","adrese":"Pirmā iela 38A, Ādaži","name":"Purni","opening_hours":"Mo-Fr 10:00-18:00"}},{"type":"Feature","geometry":{"type":"Point","coordinates":[24.172475,56.94967]},"properties":{"kategorija":"veterinars","id":"node/4138522191","nosaukums":"BIOVET","adrese":"Nīcgales iela 32, Rīga","name":"BIOVET","opening_hours":"Mo-Sa 09:00-21:00; Su 09:00-15:00"}},{"type":"Feature","geometry":{"type":"Point","coordinates":[24.203636,56.953084]},"properties":{"kategorija":"veterinars","id":"node/4198844792","nosaukums":"Veterinārā klīnika un aptieka","adrese":"Zvaigznāja gatve 2, Rīga","name":"Veterinārā klīnika un aptieka"}},{"type":"Feature","geometry":{"type":"Point","coordinates":[24.008268,56.960946]},"properties":{"kategorija":"veterinars","id":"node/4353765991","nosaukums":"SIA Terion","adrese":"Auru iela 9B, Rīga","name":"SIA Terion","opening_hours":"Mo-Fr 09:00-19:00; Sa 10:00-16:00; Su off","website":"https://terion.lv/"}},{"type":"Feature","geometry":{"type":"Point","coordinates":[24.144006,56.952781]},"properties":{"kategorija":"veterinars","id":"node/4363114197","nosaukums":"Veterinārā ambulance","adrese":"Avotu iela 66, Rīga","name":"Veterinārā ambulance"}},{"type":"Feature","geometry":{"type":"Point","coordinates":[20.99934,56.505179]},"properties":{"kategorija":"veterinars","id":"node/4432260121","nosaukums":"Dzintara veterinārā klīnika","adrese":"Dzintaru iela 8, Liepāja","name":"Dzintara veterinārā klīnika"}},{"type":"Feature","geometry":{"type":"Point","coordinates":[24.212264,56.986574]},"properties":{"kategorija":"veterinars","id":"node/443610623","nosaukums":"Kavet","adrese":"Brīvības gatve 347, Rīga","name":"Kavet","operator":"Kavet","opening_hours":"24/7"}},{"type":"Feature","geometry":{"type":"Point","coordinates":[24.136668,56.949833]},"properties":{"kategorija":"veterinars","id":"node/451842908","nosaukums":"Dr. Beinerta veterinārā klīnika","adrese":"Ģertrūdes iela 101, Rīga","name":"Dr. Beinerta veterinārā klīnika","opening_hours":"24/7","website":"https://www.vet.lv/"}},{"type":"Feature","geometry":{"type":"Point","coordinates":[24.50479,56.838918]},"properties":{"kategorija":"veterinars","id":"node/472565624","nosaukums":"IKVET","adrese":"Daugavas prospekts 38A, Ikšķile","name":"IKVET","opening_hours":"Mo-Fr 09:00-18:00; Sa,Su 09:00-15:00","website":"https://www.ikvet.lv/"}},{"type":"Feature","geometry":{"type":"Point","coordinates":[25.427571,57.533629]},"properties":{"kategorija":"veterinars","id":"node/475434858","nosaukums":"Pārgaujas veterinārā klīnika un aptieka","adrese":"Mazā Stacijas iela 5, Valmiera","name":"Pārgaujas veterinārā klīnika un aptieka","opening_hours":"Mo-Fr 09:00-18:00; Sa 09:00-14:00"}},{"type":"Feature","geometry":{"type":"Point","coordinates":[24.060102,56.964823]},"properties":{"kategorija":"veterinars","id":"node/4778738422","nosaukums":"Ikaross","adrese":"Lilijas iela 28, Rīga","name":"Ikaross","opening_hours":"Mo-Fr 09:00-19:00; Sa-Su 09:00-16:00","website":"https://www.ikaross.lv/"}},{"type":"Feature","geometry":{"type":"Point","coordinates":[24.095104,56.910122]},"properties":{"kategorija":"veterinars","id":"node/478925861","nosaukums":"Veterinārā klīnika","adrese":"Zaļenieku iela 14, Rīga"}},{"type":"Feature","geometry":{"type":"Point","coordinates":[24.20332,56.933561]},"properties":{"kategorija":"veterinars","id":"node/4888120621","nosaukums":"Anivet","adrese":"Jukuma Vācieša iela 1C, Rīga","name":"Anivet","opening_hours":"Mo-Fr 09:00-20:00; Sa 09:00-18:00"}},{"type":"Feature","geometry":{"type":"Point","coordinates":[25.397987,57.548905]},"properties":{"kategorija":"veterinars","id":"node/4954138573","nosaukums":"Veterinārā klīnika","adrese":"Patversmes iela 11, Valmiera"}},{"type":"Feature","geometry":{"type":"Point","coordinates":[24.11859,57.002421]},"properties":{"kategorija":"veterinars","id":"node/502862991","nosaukums":"Ami`s","adrese":"Tvaika iela 34, Rīga","name":"Ami`s","opening_hours":"Mo-Fr 10:00-20:00; Sa,Su 10:00-18:00"}},{"type":"Feature","geometry":{"type":"Point","coordinates":[24.124178,56.949683]},"properties":{"kategorija":"veterinars","id":"node/5104205321","nosaukums":"Veterinārā klīnika","adrese":"Dzirnavu iela 100, Rīga"}},{"type":"Feature","geometry":{"type":"Point","coordinates":[24.713799,57.515321]},"properties":{"kategorija":"veterinars","id":"node/5300352521","nosaukums":"Vidzemes veterinārais serviss","adrese":"Burtnieku iela 6, Limbaži","name":"Vidzemes veterinārais serviss","website":"http://www.vet-servis.lv/"}},{"type":"Feature","geometry":{"type":"Point","coordinates":[23.28339,56.616768]},"properties":{"kategorija":"veterinars","id":"node/5503405775","nosaukums":"Veterinārā ambulance","adrese":"Skolas iela 26A, Dobele","name":"Veterinārā ambulance","operator":"SIA Elvet","opening_hours":"Mo-Fr 09:00-17:00; Sa 10:00-12:00"}},{"type":"Feature","geometry":{"type":"Point","coordinates":[25.622668,57.052717]},"properties":{"kategorija":"veterinars","id":"node/6337163793","nosaukums":"Veterinārā klīnika","adrese":"Kaive"}},{"type":"Feature","geometry":{"type":"Point","coordinates":[24.105044,56.964238]},"properties":{"kategorija":"veterinars","id":"node/7045923515","nosaukums":"Pet City","adrese":"Pulkveža Brieža iela 31, Rīga","name":"Pet City","opening_hours":"Mo-Fr,PH 09:00-20:00; Sa-Su,PH 09:00-19:00","website":"https://www.petcity.lv/viesturdarza-klinika","emergency":"no"}},{"type":"Feature","geometry":{"type":"Point","coordinates":[22.586025,57.244513]},"properties":{"kategorija":"veterinars","id":"node/7264300102","nosaukums":"Anitas veterinārā aptieka","adrese":"Krišjāņa Valdemāra iela 4, Talsi","name":"Anitas veterinārā aptieka"}},{"type":"Feature","geometry":{"type":"Point","coordinates":[24.316097,57.096332]},"properties":{"kategorija":"veterinars","id":"node/7501088485","nosaukums":"Ādažu veterinārā klīnika","adrese":"Muižas iela 5, Ādaži","name":"Ādažu veterinārā klīnika"}},{"type":"Feature","geometry":{"type":"Point","coordinates":[27.162769,55.89728]},"properties":{"kategorija":"veterinars","id":"node/8150694028","nosaukums":"Veterinārā klīnika","adrese":"Rīgas iela 30, Krāslava"}},{"type":"Feature","geometry":{"type":"Point","coordinates":[26.547884,55.887003]},"properties":{"kategorija":"veterinars","id":"node/8191222678","nosaukums":"Latgales Veterinārais Centrs","adrese":"Jātnieku iela 63, Daugavpils","name":"Latgales Veterinārais Centrs","operator":"SIA \"Latgales Veterinārais Centrs\"","opening_hours":"Mo-Fr 08:00-20:00; Sa-Su 09:00-18:00","website":"http://www.vetdaugavpils.lv"}},{"type":"Feature","geometry":{"type":"Point","coordinates":[24.089704,56.922018]},"properties":{"kategorija":"veterinars","id":"node/8220754559","nosaukums":"Torņkalna veterinārā klīnika un aptieka","adrese":"Vienības gatve 66, Rīga","name":"Torņkalna veterinārā klīnika un aptieka","opening_hours":"Mo-Fr 10:00-19:00; Sa 10:00-16:00"}},{"type":"Feature","geometry":{"type":"Point","coordinates":[27.164693,55.896034]},"properties":{"kategorija":"veterinars","id":"node/829354727","nosaukums":"Veterinārā klīnika","adrese":"","opening_hours":"Tu-Su 08:00-15:00; Sa 08:00-12:00"}},{"type":"Feature","geometry":{"type":"Point","coordinates":[24.016309,56.947562]},"properties":{"kategorija":"veterinars","id":"node/846230913","nosaukums":"Veterinārā klīnika","adrese":"Paula Lejiņa iela 5, Rīga"}},{"type":"Feature","geometry":{"type":"Point","coordinates":[25.276272,57.315013]},"properties":{"kategorija":"veterinars","id":"node/847568089","nosaukums":"Aikāsāp","adrese":"Valmieras iela 2, Cēsis","name":"Aikāsāp"}},{"type":"Feature","geometry":{"type":"Point","coordinates":[24.604549,56.815261]},"properties":{"kategorija":"veterinars","id":"node/847714651","nosaukums":"Ogres veterinārā klīnika","adrese":"Upes prospekts 13, Ogre","name":"Ogres veterinārā klīnika","website":"https://ogrevet.lv"}},{"type":"Feature","geometry":{"type":"Point","coordinates":[24.197248,56.599255]},"properties":{"kategorija":"veterinars","id":"node/8630181277","nosaukums":"Iecavas veterinārā klinika","adrese":"Tirgus iela 7C, Iecava","name":"Iecavas veterinārā klinika","opening_hours":"Mo-Fr 09:00-17:00; Sa 09:00-16:00; Su off","website":"https://vetiecava.lv/"}},{"type":"Feature","geometry":{"type":"Point","coordinates":[27.336749,56.513832]},"properties":{"kategorija":"veterinars","id":"node/8688830780","nosaukums":"Amicus","adrese":"Kr. Valdemāra iela 16, Rēzekne","name":"Amicus"}},{"type":"Feature","geometry":{"type":"Point","coordinates":[24.20769,56.939583]},"properties":{"kategorija":"veterinars","id":"node/892139541","nosaukums":"Veterinārā klīnika","adrese":"Brāļu Kaudzīšu iela 19, Rīga"}},{"type":"Feature","geometry":{"type":"Point","coordinates":[21.014287,56.522866]},"properties":{"kategorija":"veterinars","id":"node/897959193","nosaukums":"Veterinārā klīnika","adrese":"Lāčplēša iela 64, Liepāja"}},{"type":"Feature","geometry":{"type":"Point","coordinates":[22.016582,56.677259]},"properties":{"kategorija":"veterinars","id":"node/9231840066","nosaukums":"Veterināraptieka","adrese":"Kuldīgas iela 6, Skrunda","name":"Veterināraptieka"}},{"type":"Feature","geometry":{"type":"Point","coordinates":[24.039151,56.953715]},"properties":{"kategorija":"veterinars","id":"node/9373127457","nosaukums":"Dr. Beinerts Imantas Veterinārā Klīnika","adrese":"Kurzemes prospekts 1A, Rīga","name":"Dr. Beinerts Imantas Veterinārā Klīnika","opening_hours":"Mo-Su 10:00-20:00","website":"https://www.vet.lv/"}},{"type":"Feature","geometry":{"type":"Point","coordinates":[24.047549,56.963884]},"properties":{"kategorija":"veterinars","id":"node/9439654900","nosaukums":"Paija Vet","adrese":"Grīvas iela 25, Rīga","name":"Paija Vet","opening_hours":"Mo-Tu,Th-Fr 11:00-18:00; We 11:00-16:00; Sa-Su closed"}},{"type":"Feature","geometry":{"type":"Point","coordinates":[24.008872,56.963702]},"properties":{"kategorija":"veterinars","id":"node/9499116199","nosaukums":"TOTO Veterinārā ambulance","adrese":"Slokas iela 134A, Rīga","name":"TOTO Veterinārā ambulance","opening_hours":"Mo-Fr 08:00-18:00; Sa 09:00-14:00; Su off"}},{"type":"Feature","geometry":{"type":"Point","coordinates":[25.873692,56.501688]},"properties":{"kategorija":"veterinars","id":"node/9600996909","nosaukums":"Veterinārā ambulance","adrese":"Rīgas iela 132, Jēkabpils","name":"Veterinārā ambulance"}},{"type":"Feature","geometry":{"type":"Point","coordinates":[25.872755,56.501859]},"properties":{"kategorija":"veterinars","id":"node/9600996911","nosaukums":"Jāņa aptieka","adrese":"Rīgas iela 142, Jēkabpils","name":"Jāņa aptieka"}},{"type":"Feature","geometry":{"type":"Point","coordinates":[24.253534,56.976874]},"properties":{"kategorija":"veterinars","id":"node/9661090419","nosaukums":"Veterinārā klīnika","adrese":"Juglas iela 51, Rīga"}},{"type":"Feature","geometry":{"type":"Point","coordinates":[24.031712,56.95998]},"properties":{"kategorija":"veterinars","id":"node/9733294523","nosaukums":"Kalnbērzs","adrese":"Slokas iela 163A, Rīga","name":"Kalnbērzs","opening_hours":"Mo-Fr 09:00-20:00; Sa,Su 09:00-16:00"}},{"type":"Feature","geometry":{"type":"Point","coordinates":[24.170567,56.963042]},"properties":{"kategorija":"veterinars","id":"node/9819129822","nosaukums":"VETKLĪNIKA24","adrese":"Dzelzavas iela 15, Rīga","name":"VETKLĪNIKA24","opening_hours":"24/7","website":"https://vet24.lv/","emergency":"yes"}},{"type":"Feature","geometry":{"type":"Point","coordinates":[23.609594,56.958324]},"properties":{"kategorija":"veterinars","id":"node/9855472758","nosaukums":"Reku","adrese":"Raiņa iela 104, Jūrmala","name":"Reku"}},{"type":"Feature","geometry":{"type":"Point","coordinates":[24.129584,56.960518]},"properties":{"kategorija":"veterinars","id":"node/9892901604","nosaukums":"Terion","adrese":"Miera iela 4, Rīga","name":"Terion","opening_hours":"Mo-Sa 09:00-19:00"}},{"type":"Feature","geometry":{"type":"Point","coordinates":[26.515525,55.880337]},"properties":{"kategorija":"veterinars","id":"node/9906567907","nosaukums":"Petvet","adrese":"Balvu iela 5, Daugavpils","name":"Petvet","operator":"SIA \"Petvet\"","opening_hours":"Mo-Fr 09:00-20:00","website":"http://www.petvet.lv/"}},{"type":"Feature","geometry":{"type":"Point","coordinates":[21.025581,56.482236]},"properties":{"kategorija":"veterinars","id":"node/9941197574","nosaukums":"Reinholces A. veterinārā klīnika","adrese":"Reiņu meža iela 12, Liepāja","name":"Reinholces A. veterinārā klīnika"}},{"type":"Feature","geometry":{"type":"Point","coordinates":[21.021261,56.482435]},"properties":{"kategorija":"veterinars","id":"node/9941233039","nosaukums":"Endijas veterinārā klīnika","adrese":"Mirdzas Ķempes iela 10, Liepāja","name":"Endijas veterinārā klīnika"}},{"type":"Feature","geometry":{"type":"Point","coordinates":[21.011475,56.525089]},"properties":{"kategorija":"veterinars","id":"node/9941233040","nosaukums":"Veterinārā klīnika VINNI","adrese":"Krūmu iela 7/9, Liepāja","name":"Veterinārā klīnika VINNI"}},{"type":"Feature","geometry":{"type":"Point","coordinates":[21.027678,56.535482]},"properties":{"kategorija":"veterinars","id":"node/9941233041","nosaukums":"Veterinārā klīnika DAVET","adrese":"Ventspils iela 54, Liepāja","name":"Veterinārā klīnika DAVET"}},{"type":"Feature","geometry":{"type":"Point","coordinates":[24.167404,56.981893]},"properties":{"kategorija":"veterinars","id":"way/105121240","nosaukums":"Čiekurkalna veterinārā ambulance","adrese":"Čiekurkalna 1. līnija 25B, Rīga","name":"Čiekurkalna veterinārā ambulance","opening_hours":"Mo-Fr 09:00-19:00","website":"https://cva.lv/"}},{"type":"Feature","geometry":{"type":"Point","coordinates":[24.07609,56.914651]},"properties":{"kategorija":"veterinars","id":"way/1059681422","nosaukums":"Fel-Can","adrese":"Codes iela 3A, Rīga","name":"Fel-Can","operator":"SIA \"Fel-Can\"","opening_hours":"Mo-Fr 10:00-20:00; Sa 10:00-18:00","website":"http://www.felcan.lv/"}},{"type":"Feature","geometry":{"type":"Point","coordinates":[24.155893,56.970504]},"properties":{"kategorija":"veterinars","id":"way/132908821","nosaukums":"Veterinārais serviss Bieriņmuiža","adrese":"Krimuldas iela 10, Rīga","name":"Veterinārais serviss Bieriņmuiža","opening_hours":"Tu-Fr 13:00-19:30"}},{"type":"Feature","geometry":{"type":"Point","coordinates":[24.177124,56.927089]},"properties":{"kategorija":"veterinars","id":"way/160244807","nosaukums":"Ķengaraga veterinārā ambulance","adrese":"Mazā Rencēnu iela 2, Rīga","name":"Ķengaraga veterinārā ambulance","website":"https://kva.lv/"}},{"type":"Feature","geometry":{"type":"Point","coordinates":[25.857757,56.501841]},"properties":{"kategorija":"veterinars","id":"way/200470238","nosaukums":"Dille, D.","adrese":"Vilhelma Strūves iela 1, Jēkabpils","name":"Dille, D."}},{"type":"Feature","geometry":{"type":"Point","coordinates":[24.133411,56.973339]},"properties":{"kategorija":"veterinars","id":"way/206102435","nosaukums":"Veterinārā klīnika","adrese":"Krišjāņa Valdemāra iela 151A, Rīga"}},{"type":"Feature","geometry":{"type":"Point","coordinates":[27.052559,57.419736]},"properties":{"kategorija":"veterinars","id":"way/278008042","nosaukums":"Labākais draugs","adrese":"Latgales iela 3A, Alūksne","name":"Labākais draugs"}},{"type":"Feature","geometry":{"type":"Point","coordinates":[22.584595,57.259123]},"properties":{"kategorija":"veterinars","id":"way/385980680","nosaukums":"Veterinārā klīnika","adrese":"Krišjāņa Valdemāra iela 75D, Talsi"}},{"type":"Feature","geometry":{"type":"Point","coordinates":[24.523117,56.605908]},"properties":{"kategorija":"veterinars","id":"way/410072039","nosaukums":"Vecumnieku veterinārā aptieka","adrese":"Rīgas iela 11, Vecumnieki","name":"Vecumnieku veterinārā aptieka","opening_hours":"Tu-Sa 09:00-19:00","website":"https://vetvecumnieki.lv/"}},{"type":"Feature","geometry":{"type":"Point","coordinates":[25.412723,57.545046]},"properties":{"kategorija":"veterinars","id":"way/519246903","nosaukums":"Vidzemes veterinārais serviss","adrese":"Ezera iela 3, Valmiera","name":"Vidzemes veterinārais serviss","website":"https://www.vet-serviss.lv/"}},{"type":"Feature","geometry":{"type":"Point","coordinates":[24.054057,56.934286]},"properties":{"kategorija":"veterinars","id":"way/596959775","nosaukums":"Kaķu palīdzības centrs REMI","adrese":"Kauguru iela 10, Rīga","name":"Kaķu palīdzības centrs REMI"}},{"type":"Feature","geometry":{"type":"Point","coordinates":[21.614881,56.718573]},"properties":{"kategorija":"veterinars","id":"way/672828087","nosaukums":"Veterinārā klīnika","adrese":"Jelgavas iela 17, Aizpute","operator":"SIA Heriots","opening_hours":"Mo-Fr 09:00-18:00; Sa 09:00-14:00; Su closed"}},{"type":"Feature","geometry":{"type":"Point","coordinates":[25.446207,57.549437]},"properties":{"kategorija":"veterinars","id":"way/70364773","nosaukums":"4 Mīļas Ķepas","adrese":"Loku iela 21, Valmiera","name":"4 Mīļas Ķepas"}},{"type":"Feature","geometry":{"type":"Point","coordinates":[21.571958,57.390589]},"properties":{"kategorija":"veterinars","id":"way/94458738","nosaukums":"Veterinārā klīnika","adrese":"Jūras iela 1A, Ventspils","operator":"ZuZu land"}},{"type":"Feature","geometry":{"type":"Point","coordinates":[21.553037,57.388308]},"properties":{"kategorija":"veterinars","id":"way/94477116","nosaukums":"Cheirons","adrese":"Katoļu iela 36, Ventspils","name":"Cheirons","opening_hours":"Mo-Fr 10:00-18:00"}}]}