{"type":"FeatureCollection","features":[{"type":"Feature","geometry":{"type":"Point","coordinates":[25.275977,57.309458]},"properties":{"kategorija":"wifi_punkts","id":"node/10056067579","nosaukums":"Hesburger","adrese":"Piebalgas iela 15, Cēsis","name":"Hesburger","operator":"RIGABURGER SIA","brand":"Hesburger","opening_hours":"Mo-Th 09:00-23:00; Fr 09:00-24:00; Sa 00:00-02:00,09:00-24:00; Su 00:00-02:00,09:00-23:00","website":"https://www.hesburger.lv/","amenity":"fast_food"}},{"type":"Feature","geometry":{"type":"Point","coordinates":[24.102582,56.92736]},"properties":{"kategorija":"wifi_punkts","id":"node/10139347107","nosaukums":"KFC","adrese":"Mūkusalas iela 71, Rīga","name":"KFC","brand":"KFC","amenity":"fast_food"}},{"type":"Feature","geometry":{"type":"Point","coordinates":[24.135443,56.971217]},"properties":{"kategorija":"wifi_punkts","id":"node/10725985123","nosaukums":"Ezītis miglā","adrese":"Zirņu iela 12, Rīga","name":"Ezītis miglā","operator":"SIA \"Frī kartelis\"","brand":"Ezītis miglā","opening_hours":"Mo-Su 11:00-01:00","amenity":"pub"}},{"type":"Feature","geometry":{"type":"Point","coordinates":[21.562378,57.39256]},"properties":{"kategorija":"wifi_punkts","id":"node/10729910007","nosaukums":"Bezmaksas Wi-Fi","adrese":"","internet_access:ssid":"Ventspils"}},{"type":"Feature","geometry":{"type":"Point","coordinates":[21.562439,57.392674]},"properties":{"kategorija":"wifi_punkts","id":"node/10729910008","nosaukums":"Bezmaksas Wi-Fi","adrese":"","internet_access:ssid":"Tet"}},{"type":"Feature","geometry":{"type":"Point","coordinates":[21.561496,57.39127]},"properties":{"kategorija":"wifi_punkts","id":"node/10729910009","nosaukums":"Bezmaksas Wi-Fi","adrese":"","internet_access:ssid":"Ventspils"}},{"type":"Feature","geometry":{"type":"Point","coordinates":[21.567017,57.39328]},"properties":{"kategorija":"wifi_punkts","id":"node/10729910010","nosaukums":"Bezmaksas Wi-Fi","adrese":"","internet_access:ssid":"Ventspils"}},{"type":"Feature","geometry":{"type":"Point","coordinates":[21.546269,57.384893]},"properties":{"kategorija":"wifi_punkts","id":"node/10754182466","nosaukums":"Bezmaksas Wi-Fi","adrese":"","internet_access:ssid":"Ventspils"}},{"type":"Feature","geometry":{"type":"Point","coordinates":[21.544352,57.38662]},"properties":{"kategorija":"wifi_punkts","id":"node/10754182467","nosaukums":"Bezmaksas Wi-Fi","adrese":"","internet_access:ssid":"Ventspils-guest"}},{"type":"Feature","geometry":{"type":"Point","coordinates":[21.564636,57.382169]},"properties":{"kategorija":"wifi_punkts","id":"node/10754494261","nosaukums":"Bezmaksas Wi-Fi","adrese":"","internet_access:ssid":"Ventspils"}},{"type":"Feature","geometry":{"type":"Point","coordinates":[21.553359,57.395144]},"properties":{"kategorija":"wifi_punkts","id":"node/10754494262","nosaukums":"Bezmaksas Wi-Fi","adrese":"","internet_access:ssid":"Ventspils"}},{"type":"Feature","geometry":{"type":"Point","coordinates":[21.559446,57.396438]},"properties":{"kategorija":"wifi_punkts","id":"node/10754494263","nosaukums":"Bezmaksas Wi-Fi","adrese":"","internet_access:ssid":"Ventspils"}},{"type":"Feature","geometry":{"type":"Point","coordinates":[21.541355,57.393324]},"properties":{"kategorija":"wifi_punkts","id":"node/10759112663","nosaukums":"Bezmaksas Wi-Fi","adrese":"","internet_access:ssid":"Ventspils-guest"}},{"type":"Feature","geometry":{"type":"Point","coordinates":[21.543177,57.394622]},"properties":{"kategorija":"wifi_punkts","id":"node/10759298743","nosaukums":"Bezmaksas Wi-Fi","adrese":"","internet_access:ssid":"Ventspils"}},{"type":"Feature","geometry":{"type":"Point","coordinates":[21.574109,57.390997]},"properties":{"kategorija":"wifi_punkts","id":"node/10759298744","nosaukums":"Bezmaksas Wi-Fi","adrese":"","internet_access:ssid":"Ventspils"}},{"type":"Feature","geometry":{"type":"Point","coordinates":[21.571854,57.393061]},"properties":{"kategorija":"wifi_punkts","id":"node/10759298752","nosaukums":"Bezmaksas Wi-Fi","adrese":"","internet_access:ssid":"Ventspils"}},{"type":"Feature","geometry":{"type":"Point","coordinates":[21.605243,57.40064]},"properties":{"kategorija":"wifi_punkts","id":"node/10759298760","nosaukums":"Bezmaksas Wi-Fi","adrese":"","internet_access:ssid":"Ventspils"}},{"type":"Feature","geometry":{"type":"Point","coordinates":[21.589587,57.400775]},"properties":{"kategorija":"wifi_punkts","id":"node/10759298844","nosaukums":"Bezmaksas Wi-Fi","adrese":"","internet_access:ssid":"Ventspils"}},{"type":"Feature","geometry":{"type":"Point","coordinates":[21.55162,57.385976]},"properties":{"kategorija":"wifi_punkts","id":"node/10766983365","nosaukums":"Bezmaksas Wi-Fi","adrese":"","internet_access:ssid":"Ventspils"}},{"type":"Feature","geometry":{"type":"Point","coordinates":[21.557194,57.393905]},"properties":{"kategorija":"wifi_punkts","id":"node/10767386161","nosaukums":"Bezmaksas Wi-Fi","adrese":"","internet_access:ssid":"Ventspils"}},{"type":"Feature","geometry":{"type":"Point","coordinates":[21.565609,57.387778]},"properties":{"kategorija":"wifi_punkts","id":"node/10792619411","nosaukums":"Bezmaksas Wi-Fi","adrese":"","internet_access:ssid":"Ventspils"}},{"type":"Feature","geometry":{"type":"Point","coordinates":[21.548826,57.382866]},"properties":{"kategorija":"wifi_punkts","id":"node/10805544299","nosaukums":"Bezmaksas Wi-Fi","adrese":"","internet_access:ssid":"Ventspils"}},{"type":"Feature","geometry":{"type":"Point","coordinates":[22.317766,57.683624]},"properties":{"kategorija":"wifi_punkts","id":"node/10982114237","nosaukums":"Picas","adrese":"Mazirbe","name":"Picas","opening_hours":"Fr 13:00-21:00; Sa 12:00-21:00; Su 12:00-19:00","amenity":"restaurant"}},{"type":"Feature","geometry":{"type":"Point","coordinates":[24.127361,56.953037]},"properties":{"kategorija":"wifi_punkts","id":"node/11039339305","nosaukums":"Benu","adrese":"Lāčplēša iela 38, Rīga","name":"Benu","brand":"Benu","opening_hours":"Mo-Fr 08:00-20:00; Sa-Su off","website":"https://www.benu.lv/","amenity":"pharmacy"}},{"type":"Feature","geometry":{"type":"Point","coordinates":[24.177816,56.935176]},"properties":{"kategorija":"wifi_punkts","id":"node/11040210844","nosaukums":"Telekomunikāciju servisa centrs","adrese":"Rēzeknes iela 5A, Rīga","name":"Telekomunikāciju servisa centrs","opening_hours":"Mo-Fr 09:00-18:00","shop":"repair"}},{"type":"Feature","geometry":{"type":"Point","coordinates":[24.152897,56.954547]},"properties":{"kategorija":"wifi_punkts","id":"node/11070676996","nosaukums":"Grāpis","adrese":"Pērnavas iela 62, Rīga","name":"Grāpis","opening_hours":"Su-Mo 11:00-17:00; Tu-Sa 11:00-20:00","website":"https://www.grapis.lv/","amenity":"restaurant"}},{"type":"Feature","geometry":{"type":"Point","coordinates":[23.978296,56.924784]},"properties":{"kategorija":"wifi_punkts","id":"node/11197974372","nosaukums":"Bezmaksas Wi-Fi","adrese":"Lidosta \"Rīga\"","leisure":"indoor_play"}},{"type":"Feature","geometry":{"type":"Point","coordinates":[23.978126,56.924955]},"properties":{"kategorija":"wifi_punkts","id":"node/11198046024","nosaukums":"Caffe Napoli","adrese":"Lidosta \"Rīga\"","name":"Caffe Napoli","amenity":"cafe"}},{"type":"Feature","geometry":{"type":"Point","coordinates":[21.186689,56.890748]},"properties":{"kategorija":"wifi_punkts","id":"node/11201592796","nosaukums":"Vēju Paradīze","adrese":"Smilšu iela 14, Pāvilosta","name":"Vēju Paradīze","amenity":"restaurant"}},{"type":"Feature","geometry":{"type":"Point","coordinates":[24.121783,56.951341]},"properties":{"kategorija":"wifi_punkts","id":"node/11778489139","nosaukums":"Čili Pizza","adrese":"Krišjāņa Barona iela 20, Rīga","name":"Čili Pizza","opening_hours":"Mo-Su 10:00-23:00","amenity":"restaurant"}},{"type":"Feature","geometry":{"type":"Point","coordinates":[25.94785,57.114061]},"properties":{"kategorija":"wifi_punkts","id":"node/1185819085","nosaukums":"Vanagkalni","adrese":"","name":"Vanagkalni","website":"https://www.skiriver.lv/","tourism":"guest_house","leisure":"track"}},{"type":"Feature","geometry":{"type":"Point","coordinates":[25.948531,57.114602]},"properties":{"kategorija":"wifi_punkts","id":"node/1185819087","nosaukums":"Vanagkalni","adrese":"","name":"Vanagkalni","website":"https://www.skiriver.lv/","tourism":"guest_house"}},{"type":"Feature","geometry":{"type":"Point","coordinates":[24.107232,56.945464]},"properties":{"kategorija":"wifi_punkts","id":"node/11953590833","nosaukums":"Mushusse","adrese":"11. novembra krastmala 31, Rīga","name":"Mushusse","opening_hours":"24/7","internet_access:ssid":"wifi-mushusse","amenity":"restaurant"}},{"type":"Feature","geometry":{"type":"Point","coordinates":[24.036686,56.956793]},"properties":{"kategorija":"wifi_punkts","id":"node/11968423245","nosaukums":"Mr. Bobs","adrese":"Kurzemes prospekts 3, Rīga","name":"Mr. Bobs","amenity":"food_court"}},{"type":"Feature","geometry":{"type":"Point","coordinates":[24.036686,56.956835]},"properties":{"kategorija":"wifi_punkts","id":"node/11968423246","nosaukums":"OAZE","adrese":"Kurzemes prospekts 3, Rīga","name":"OAZE","amenity":"bar"}},{"type":"Feature","geometry":{"type":"Point","coordinates":[24.03638,56.956825]},"properties":{"kategorija":"wifi_punkts","id":"node/11968423248","nosaukums":"Iļģuciema rūpnīcas veikals","adrese":"Kurzemes prospekts 3, Rīga","name":"Iļģuciema rūpnīcas veikals","operator":"SIA Ilgezeem","amenity":"bar"}},{"type":"Feature","geometry":{"type":"Point","coordinates":[24.036379,56.956739]},"properties":{"kategorija":"wifi_punkts","id":"node/11968423249","nosaukums":"Sushi bowl","adrese":"Kurzemes prospekts 3, Rīga","name":"Sushi bowl","amenity":"restaurant"}},{"type":"Feature","geometry":{"type":"Point","coordinates":[24.036542,56.956734]},"properties":{"kategorija":"wifi_punkts","id":"node/11968423250","nosaukums":"Morning Picarina","adrese":"Kurzemes prospekts 3, Rīga","name":"Morning Picarina","amenity":"fast_food"}},{"type":"Feature","geometry":{"type":"Point","coordinates":[24.036449,56.956742]},"properties":{"kategorija":"wifi_punkts","id":"node/11968423251","nosaukums":"Bezmaksas Wi-Fi","adrese":"Kurzemes prospekts 3, Rīga","amenity":"food_court"}},{"type":"Feature","geometry":{"type":"Point","coordinates":[24.036622,56.956672]},"properties":{"kategorija":"wifi_punkts","id":"node/11968423252","nosaukums":"Vesela Pani Bistro","adrese":"Kurzemes prospekts 3, Rīga","name":"Vesela Pani Bistro","amenity":"food_court"}},{"type":"Feature","geometry":{"type":"Point","coordinates":[25.979905,56.293366]},"properties":{"kategorija":"wifi_punkts","id":"node/12269851387","nosaukums":"Zasas bibliotēka","adrese":"Zaļā iela 8, Zasa","name":"Zasas bibliotēka","operator":"Jēkabpils novada Galvenā bibliotēka","opening_hours":"Mo-Tu 09:00-18:00;We-Fr 09:00-14:00; Sa-Su Off","website":"https://www.jgb.lv/lv/publiskas-bibliotekas/jekabpils-novads/jekabpils-novada-zasas-biblioteka/","amenity":"library"}},{"type":"Feature","geometry":{"type":"Point","coordinates":[24.127484,56.952959]},"properties":{"kategorija":"wifi_punkts","id":"node/12462719205","nosaukums":"Centrālā laboratorija","adrese":"Lāčplēša iela 38, Rīga","name":"Centrālā laboratorija","opening_hours":"Mo-Fr 07:30-19:00; Sa 09:00-14:00","website":"https://laboratorija.lv"}},{"type":"Feature","geometry":{"type":"Point","coordinates":[24.269087,57.010253]},"properties":{"kategorija":"wifi_punkts","id":"node/1257827131","nosaukums":"PiePe","adrese":"Liedaga iela 2B, Priedkalne","name":"PiePe","opening_hours":"Mo-Su 11:00-21:00","website":"https://www.facebook.com/CafePiePe","amenity":"bar"}},{"type":"Feature","geometry":{"type":"Point","coordinates":[24.142014,56.949611]},"properties":{"kategorija":"wifi_punkts","id":"node/12917421620","nosaukums":"Augustiņa istaba","adrese":"Stabu iela 100, Rīga","name":"Augustiņa istaba","opening_hours":"Mo-Su 11:00-19:00","website":"https://augustins.lv","leisure":"indoor_play"}},{"type":"Feature","geometry":{"type":"Point","coordinates":[22.966944,57.051157]},"properties":{"kategorija":"wifi_punkts","id":"node/13050892764","nosaukums":"Cyclists' Guest House","adrese":"","name":"Cyclists' Guest House","tourism":"guest_house"}},{"type":"Feature","geometry":{"type":"Point","coordinates":[24.11862,56.957597]},"properties":{"kategorija":"wifi_punkts","id":"node/13348819719","nosaukums":"MIRO Rooms Skolas","adrese":"Skolas iela 14, Rīga","name":"MIRO Rooms Skolas","operator":"MIRO Rooms","website":"https://miro-rooms.com","tourism":"apartment"}},{"type":"Feature","geometry":{"type":"Point","coordinates":[26.517515,55.87072]},"properties":{"kategorija":"wifi_punkts","id":"node/1414377163","nosaukums":"Latgales centrālā bibliotēka","adrese":"Rīgas iela 22A, Daugavpils","name":"Latgales centrālā bibliotēka","opening_hours":"Mo-Fr 10:00-19:00; Sa 10:00-17:00; Th[-1] off","amenity":"library"}},{"type":"Feature","geometry":{"type":"Point","coordinates":[20.988949,56.385503]},"properties":{"kategorija":"wifi_punkts","id":"node/1453551902","nosaukums":"Bezmaksas Wi-Fi","adrese":"","operator":"Chill Inn","tourism":"camp_site"}},{"type":"Feature","geometry":{"type":"Point","coordinates":[20.98867,56.385621]},"properties":{"kategorija":"wifi_punkts","id":"node/1453551903","nosaukums":"Chill Inn","adrese":"Bernāti","name":"Chill Inn","website":"https://www.chillinn.lv/","tourism":"hotel"}},{"type":"Feature","geometry":{"type":"Point","coordinates":[26.517413,55.870865]},"properties":{"kategorija":"wifi_punkts","id":"node/1456113203","nosaukums":"Daugavpils tūrisma informācijas centrs","adrese":"Rīgas iela 22A, Daugavpils","name":"Daugavpils tūrisma informācijas centrs","operator":"Daugavpils pilsētas pašvaldības tūrisma attīstības un informācijas aģentūra","opening_hours":"Mo-Su 10:00-18:00","website":"https://www.visitdaugavpils.lv","tourism":"information"}},{"type":"Feature","geometry":{"type":"Point","coordinates":[26.376368,55.903315]},"properties":{"kategorija":"wifi_punkts","id":"node/1549349062","nosaukums":"Sventes muiža","adrese":"Alejas iela 7, Svente","name":"Sventes muiža","operator":"GMG Bowling","website":"http://www.sventehotel.lv/","tourism":"hotel"}},{"type":"Feature","geometry":{"type":"Point","coordinates":[24.129135,56.949286]},"properties":{"kategorija":"wifi_punkts","id":"node/1634518186","nosaukums":"Central Hostel","adrese":"Ernesta Birznieka-Upīša iela 20, Rīga","name":"Central Hostel","website":"https://www.centralhostel.lv/","tourism":"hostel"}},{"type":"Feature","geometry":{"type":"Point","coordinates":[24.853254,57.154453]},"properties":{"kategorija":"wifi_punkts","id":"node/1716787587","nosaukums":"Pils","adrese":"Pils iela 4B, Sigulda","name":"Pils","website":"http://www.hotelpils.lv/lv/#.VeXeurb7vz8","tourism":"hotel"}},{"type":"Feature","geometry":{"type":"Point","coordinates":[24.12551,56.955984]},"properties":{"kategorija":"wifi_punkts","id":"node/1741783789","nosaukums":"Cafeterius","adrese":"Tērbatas iela 45, Rīga","name":"Cafeterius","opening_hours":"Mo-Fr 08:00-20:00; Sa,Su 10:00-20:00","amenity":"cafe"}},{"type":"Feature","geometry":{"type":"Point","coordinates":[24.10696,56.947885]},"properties":{"kategorija":"wifi_punkts","id":"node/1826001038","nosaukums":"Costa Coffee","adrese":"Kungu iela 1, Rīga","name":"Costa Coffee","brand":"Costa","opening_hours":"Mo-Th 07:30-21:00; Sa 08:00-22:00; Su 08:00-21:00; Fr 07:30-22:00","amenity":"cafe"}},{"type":"Feature","geometry":{"type":"Point","coordinates":[27.725312,56.547622]},"properties":{"kategorija":"wifi_punkts","id":"node/1846073866","nosaukums":"Ludzas novada TIC","adrese":"Baznīcas iela 42, Ludza","name":"Ludzas novada TIC","website":"https://www.visitludza.lv","tourism":"information"}},{"type":"Feature","geometry":{"type":"Point","coordinates":[24.10675,56.949043]},"properties":{"kategorija":"wifi_punkts","id":"node/1870939179","nosaukums":"Blue Bird Hostel","adrese":"Tirgoņu iela 4, Rīga","name":"Blue Bird Hostel","website":"https://bluebird.lv/en/hostel/","tourism":"hostel"}},{"type":"Feature","geometry":{"type":"Point","coordinates":[24.120426,56.956688]},"properties":{"kategorija":"wifi_punkts","id":"node/1891204790","nosaukums":"MiiT Coffee","adrese":"Lāčplēša iela 10, Rīga","name":"MiiT Coffee","opening_hours":"Mo-We 08:00-21:00; Th-Fr 08:00-22:00; Sa 09:00-21:00; Su 09:00-20:00","website":"http://www.miit.lv/","internet_access:ssid":"laura@miit.lv;info@miit.lv;miit@miit.lv","amenity":"cafe"}},{"type":"Feature","geometry":{"type":"Point","coordinates":[26.51556,55.870366]},"properties":{"kategorija":"wifi_punkts","id":"node/1919065352","nosaukums":"REBIR","adrese":"Vienības iela 19, Daugavpils","name":"REBIR","tourism":"hotel"}},{"type":"Feature","geometry":{"type":"Point","coordinates":[24.859805,57.144284]},"properties":{"kategorija":"wifi_punkts","id":"node/2110785172","nosaukums":"ņamma","adrese":"Vidzemes šoseja 16, Sigulda","name":"ņamma","opening_hours":"Mo-Sa 08:00-20:00; Su 09:00-20:00","amenity":"restaurant"}},{"type":"Feature","geometry":{"type":"Point","coordinates":[24.831616,57.184165]},"properties":{"kategorija":"wifi_punkts","id":"node/2162475074","nosaukums":"Kungu rija","adrese":"","name":"Kungu rija","operator":"SIA V.G.V.","opening_hours":"Mo-Su 12:00-23:00","website":"http://www.kungurija.lv","amenity":"restaurant"}},{"type":"Feature","geometry":{"type":"Point","coordinates":[24.852643,57.153724]},"properties":{"kategorija":"wifi_punkts","id":"node/2252194120","nosaukums":"Mr. Biskvīts","adrese":"Ausekļa iela 9, Sigulda","name":"Mr. Biskvīts","opening_hours":"Mo-Su 09:00-21:00","website":"http://mr.biskvits.lv","amenity":"cafe","shop":"confectionery"}},{"type":"Feature","geometry":{"type":"Point","coordinates":[24.407615,57.319602]},"properties":{"kategorija":"wifi_punkts","id":"node/2373640482","nosaukums":"Jūras priede","adrese":"Upes iela 56, Saulkrasti","name":"Jūras priede","tourism":"chalet"}},{"type":"Feature","geometry":{"type":"Point","coordinates":[24.108741,56.947907]},"properties":{"kategorija":"wifi_punkts","id":"node/2420908317","nosaukums":"Kiwi Bar","adrese":"Skārņu iela 7, Rīga","name":"Kiwi Bar","website":"http://www.kiwibar.lv","amenity":"bar"}},{"type":"Feature","geometry":{"type":"Point","coordinates":[24.112576,56.947115]},"properties":{"kategorija":"wifi_punkts","id":"node/2808655481","nosaukums":"Wellton Centrum Hotel & SPA","adrese":"Kalēju iela 33, Rīga","name":"Wellton Centrum Hotel & SPA","operator":"Mogotel, Ltd.","website":"https://www.wellton.com/centrum","tourism":"hotel"}},{"type":"Feature","geometry":{"type":"Point","coordinates":[24.005329,56.947471]},"properties":{"kategorija":"wifi_punkts","id":"node/3138440134","nosaukums":"Maxima X","adrese":"Ruses iela 9, Rīga","name":"Maxima X","operator":"Maxima Latvija","brand":"Maxima","opening_hours":"08:00-22:00","website":"https://maxima.lv/","shop":"supermarket"}},{"type":"Feature","geometry":{"type":"Point","coordinates":[24.070016,56.931909]},"properties":{"kategorija":"wifi_punkts","id":"node/3510644612","nosaukums":"Janne Hotel","adrese":"Pilsoņu iela 18, Rīga","name":"Janne Hotel","operator":"Janne Hotel","opening_hours":"24/7","website":"https://hoteljanne.lv/","tourism":"hotel"}},{"type":"Feature","geometry":{"type":"Point","coordinates":[24.208649,56.604731]},"properties":{"kategorija":"wifi_punkts","id":"node/367004781","nosaukums":"Hesburger","adrese":"Iecava","name":"Hesburger","operator":"Superburger SIA","brand":"Hesburger","website":"https://www.hesburger.com/restaurants?tid=355","internet_access:ssid":"HesburgerWiFi","amenity":"fast_food"}},{"type":"Feature","geometry":{"type":"Point","coordinates":[25.157107,57.312531]},"properties":{"kategorija":"wifi_punkts","id":"node/3708439288","nosaukums":"Augstrozes Raiskuma muižā","adrese":"Raiskums","name":"Augstrozes Raiskuma muižā","website":"https://www.augstrozes.com/","tourism":"guest_house"}},{"type":"Feature","geometry":{"type":"Point","coordinates":[23.802905,56.974472]},"properties":{"kategorija":"wifi_punkts","id":"node/4105732306","nosaukums":"SeaSide Bar","adrese":"Jomas iela 47/49, Jūrmala","name":"SeaSide Bar","opening_hours":"Mo-Sa 15:00-02:00; Su 12:00-00:00","website":"https://hoteljurmala.com/","amenity":"bar"}},{"type":"Feature","geometry":{"type":"Point","coordinates":[24.151349,56.960928]},"properties":{"kategorija":"wifi_punkts","id":"node/4230430197","nosaukums":"Linovo","adrese":"Pērnavas iela 32, Rīga","name":"Linovo","website":"www.linovo.lv","tourism":"hotel"}},{"type":"Feature","geometry":{"type":"Point","coordinates":[24.035183,56.928777]},"properties":{"kategorija":"wifi_punkts","id":"node/4338682389","nosaukums":"Lido","adrese":"Lielirbes iela 29, Rīga","name":"Lido","brand":"Lido","opening_hours":"10:00-21:00","website":"https://lido.lv/","amenity":"restaurant"}},{"type":"Feature","geometry":{"type":"Point","coordinates":[26.530805,55.867497]},"properties":{"kategorija":"wifi_punkts","id":"node/4430194443","nosaukums":"Biplan","adrese":"18. novembra iela 50, Daugavpils","name":"Biplan","operator":"Biplan Group","website":"https://www.biplan.lv/lv/","tourism":"hotel"}},{"type":"Feature","geometry":{"type":"Point","coordinates":[25.390513,57.527582]},"properties":{"kategorija":"wifi_punkts","id":"node/444948395","nosaukums":"Naktsmājas","adrese":"Vaidavas iela 15, Valmiera","name":"Naktsmājas","tourism":"hotel"}},{"type":"Feature","geometry":{"type":"Point","coordinates":[24.111267,56.9504]},"properties":{"kategorija":"wifi_punkts","id":"node/452517375","nosaukums":"McDonald's","adrese":"Zigfrīda Annas Meierovica bulvāris 18, Rīga","name":"McDonald's","brand":"McDonald's","opening_hours":"Mo-We,Su 07:00-01:00; Th-Sa 07:00-06:00","website":"https://mcdonalds.lv/location/luna-riga/","amenity":"fast_food"}},{"type":"Feature","geometry":{"type":"Point","coordinates":[25.274104,57.311917]},"properties":{"kategorija":"wifi_punkts","id":"node/4607805113","nosaukums":"Cafe 7 Bar","adrese":"Rīgas iela 7, Cēsis","name":"Cafe 7 Bar","opening_hours":"Th-Su 11:00-24:00","amenity":"cafe"}},{"type":"Feature","geometry":{"type":"Point","coordinates":[24.110715,56.949886]},"properties":{"kategorija":"wifi_punkts","id":"node/4795300669","nosaukums":"Circle K","adrese":"Vaļņu iela 11, Rīga","name":"Circle K","brand":"Circle K","opening_hours":"24/7","internet_access:ssid":"CKEGUEST","shop":"convenience"}},{"type":"Feature","geometry":{"type":"Point","coordinates":[24.10862,56.950075]},"properties":{"kategorija":"wifi_punkts","id":"node/4814024779","nosaukums":"Duvel's","adrese":"Meistaru iela 10, Rīga","name":"Duvel's","opening_hours":"Mo-Th,Su 12:00-23:00; Fr-Sa 12:00-01:00","website":"http://duvelpub.lv/","amenity":"pub"}},{"type":"Feature","geometry":{"type":"Point","coordinates":[24.110596,56.958114]},"properties":{"kategorija":"wifi_punkts","id":"node/494257396","nosaukums":"Lidojošā varde","adrese":"Elizabetes iela 31A, Rīga","name":"Lidojošā varde","opening_hours":"Mo-Su 11:00-23:00","website":"https://lidojosavarde.lv","amenity":"restaurant"}},{"type":"Feature","geometry":{"type":"Point","coordinates":[24.12227,56.951915]},"properties":{"kategorija":"wifi_punkts","id":"node/5104205337","nosaukums":"Costa Coffee","adrese":"Krišjāņa Barona iela 11, Rīga","name":"Costa Coffee","brand":"Costa","opening_hours":"Mo-Fr 07:30-19:00; Sa,Su 08:30-18:00","amenity":"cafe"}},{"type":"Feature","geometry":{"type":"Point","coordinates":[23.102459,57.357766]},"properties":{"kategorija":"wifi_punkts","id":"node/5107294621","nosaukums":"Cerību Liedags","adrese":"Mērsrags","name":"Cerību Liedags","operator":"Gita Liepiņa","website":"https://ceribuliedags.mozello.lv/","tourism":"apartment"}},{"type":"Feature","geometry":{"type":"Point","coordinates":[24.037206,56.9538]},"properties":{"kategorija":"wifi_punkts","id":"node/5206429922","nosaukums":"Lido","adrese":"Kurzemes prospekts 1A, Rīga","name":"Lido","brand":"Lido","opening_hours":"Mo-Sa 10:00-21:00; Su 11:00-21:00","website":"https://lido.lv/","amenity":"restaurant"}},{"type":"Feature","geometry":{"type":"Point","coordinates":[24.121299,56.953271]},"properties":{"kategorija":"wifi_punkts","id":"node/5518698622","nosaukums":"HAT Brewery Taproom","adrese":"Dzirnavu iela 66, Rīga","name":"HAT Brewery Taproom","opening_hours":"We,Th 17:00-23:00; Fr,Sa 16:00-24:00","website":"https://www.hatbrewery.lv/","amenity":"bar"}},{"type":"Feature","geometry":{"type":"Point","coordinates":[27.187198,55.891172]},"properties":{"kategorija":"wifi_punkts","id":"node/5757155814","nosaukums":"Pūce","adrese":"Artilērijas iela 18, Krāslava","name":"Pūce","tourism":"guest_house"}},{"type":"Feature","geometry":{"type":"Point","coordinates":[27.215615,56.02537]},"properties":{"kategorija":"wifi_punkts","id":"node/5840873848","nosaukums":"Restorāns (bezmaksas Wi-Fi)","adrese":"Šķipi","amenity":"restaurant"}},{"type":"Feature","geometry":{"type":"Point","coordinates":[27.217497,56.024667]},"properties":{"kategorija":"wifi_punkts","id":"node/5877798432","nosaukums":"Restorāns (bezmaksas Wi-Fi)","adrese":"Šķipi","amenity":"restaurant"}},{"type":"Feature","geometry":{"type":"Point","coordinates":[21.173178,56.889373]},"properties":{"kategorija":"wifi_punkts","id":"node/5922426545","nosaukums":"Āķagals","adrese":"Dzintaru iela 3, Pāvilosta","name":"Āķagals","website":"http://www.akagals.lv/","amenity":"restaurant"}},{"type":"Feature","geometry":{"type":"Point","coordinates":[21.968483,56.969311]},"properties":{"kategorija":"wifi_punkts","id":"node/6048787695","nosaukums":"Kuldīgas Galvenā bibliotēka","adrese":"1905. gada iela 6, Kuldīga","name":"Kuldīgas Galvenā bibliotēka","opening_hours":"Mo-Fr 09:00-18:00; Sa 10:00-16:00","website":"https://biblio.kuldiga.lv/","amenity":"library"}},{"type":"Feature","geometry":{"type":"Point","coordinates":[24.11887,56.956551]},"properties":{"kategorija":"wifi_punkts","id":"node/6109616208","nosaukums":"Mazā Terapija","adrese":"Baznīcas iela 15, Rīga","name":"Mazā Terapija","opening_hours":"Mo-Su 11:00-21:00","amenity":"cafe"}},{"type":"Feature","geometry":{"type":"Point","coordinates":[24.168045,56.563919]},"properties":{"kategorija":"wifi_punkts","id":"node/6278058394","nosaukums":"Bezmaksas Wi-Fi","adrese":"","internet_access:ssid":"Labirinti"}},{"type":"Feature","geometry":{"type":"Point","coordinates":[24.140677,56.952448]},"properties":{"kategorija":"wifi_punkts","id":"node/6375647985","nosaukums":"Nurme","adrese":"Avotu iela 53, Rīga","name":"Nurme","operator":"SIA Nurme Bar","opening_hours":"Tu-Th 16:00-24:00; Fr 16:00-02:00; Sa 16:00-01:00; Mo,Su 16:00-23:00","website":"https://nurmebeer.com/","amenity":"bar"}},{"type":"Feature","geometry":{"type":"Point","coordinates":[27.331662,56.507183]},"properties":{"kategorija":"wifi_punkts","id":"node/6552545354","nosaukums":"Li Place","adrese":"Atbrīvošanas aleja 100, Rēzekne","name":"Li Place","opening_hours":"Mo-Th 09:00-21:00; Fr 09:00-23:00; Sa 12:00-23:00; Su 12:00-21:00","amenity":"restaurant"}},{"type":"Feature","geometry":{"type":"Point","coordinates":[25.279125,57.303587]},"properties":{"kategorija":"wifi_punkts","id":"node/6695513595","nosaukums":"Ceturtā stāva apartamenti","adrese":"Vāveres iela 9, Cēsis","name":"Ceturtā stāva apartamenti","tourism":"apartment"}},{"type":"Feature","geometry":{"type":"Point","coordinates":[25.213865,57.294069]},"properties":{"kategorija":"wifi_punkts","id":"node/6807072296","nosaukums":"Kempings \"Ozolkalns\"","adrese":"","name":"Kempings \"Ozolkalns\"","website":"https://www.ozolkalns.lv/","internet_access:ssid":"kemping123","tourism":"chalet"}},{"type":"Feature","geometry":{"type":"Point","coordinates":[24.097418,56.9367]},"properties":{"kategorija":"wifi_punkts","id":"node/7063228279","nosaukums":"Dabaszinātņu bibliotēka","adrese":"Jelgavas iela 1, Rīga","name":"Dabaszinātņu bibliotēka","operator":"University of Latvia","internet_access:ssid":"LU-WIFI","amenity":"library"}},{"type":"Feature","geometry":{"type":"Point","coordinates":[24.974631,56.768408]},"properties":{"kategorija":"wifi_punkts","id":"node/7267230423","nosaukums":"Lobes krogs","adrese":"Lēdmane","name":"Lobes krogs","website":"https://www.lobes-krogs.lv/","tourism":"guest_house"}},{"type":"Feature","geometry":{"type":"Point","coordinates":[21.541928,57.39011]},"properties":{"kategorija":"wifi_punkts","id":"node/7302402805","nosaukums":"Jūra","adrese":"Jūrmalas iela 4, Ventspils","name":"Jūra","tourism":"guest_house"}},{"type":"Feature","geometry":{"type":"Point","coordinates":[26.328967,55.873724]},"properties":{"kategorija":"wifi_punkts","id":"node/7603951286","nosaukums":"Kafejnīca (bezmaksas Wi-Fi)","adrese":"","website":"http://eglukalns.lv/","internet_access:ssid":"Eglukalns free","amenity":"cafe"}},{"type":"Feature","geometry":{"type":"Point","coordinates":[24.841211,57.141039]},"properties":{"kategorija":"wifi_punkts","id":"node/7642747601","nosaukums":"MyHostel Voyage","adrese":"Sigulda","name":"MyHostel Voyage","website":"https://www.facebook.com/MyHostelVoyage/","tourism":"hostel"}},{"type":"Feature","geometry":{"type":"Point","coordinates":[24.126116,56.939406]},"properties":{"kategorija":"wifi_punkts","id":"node/7642809947","nosaukums":"MyHostel","adrese":"Mazā Krasta iela 37A, Rīga","name":"MyHostel","website":"https://myhostel.lv/","tourism":"hostel"}},{"type":"Feature","geometry":{"type":"Point","coordinates":[24.125401,56.940205]},"properties":{"kategorija":"wifi_punkts","id":"node/7653641015","nosaukums":"MyHostel","adrese":"Lastādijas iela 29A, Rīga","name":"MyHostel","website":"https://myhostel.lv/","tourism":"hostel"}},{"type":"Feature","geometry":{"type":"Point","coordinates":[24.36245,57.092484]},"properties":{"kategorija":"wifi_punkts","id":"node/7683065379","nosaukums":"BARŌ","adrese":"Kadaga","name":"BARŌ","opening_hours":"Tu-Su 16:00-22:00","amenity":"cafe"}},{"type":"Feature","geometry":{"type":"Point","coordinates":[24.1128,56.947181]},"properties":{"kategorija":"wifi_punkts","id":"node/8262687199","nosaukums":"Caffeine","adrese":"Audēju iela 15, Rīga","name":"Caffeine","opening_hours":"Mo-Sa 07:00-23:00; Su 08:00-22:00","website":"https://caffeine.lv/","amenity":"cafe"}},{"type":"Feature","geometry":{"type":"Point","coordinates":[24.198105,56.598273]},"properties":{"kategorija":"wifi_punkts","id":"node/8455387199","nosaukums":"Sombrero","adrese":"Rīgas iela 31, Iecava","name":"Sombrero","opening_hours":"Mo-Sa 08:00-21:00","amenity":"restaurant"}},{"type":"Feature","geometry":{"type":"Point","coordinates":[23.809088,56.97672]},"properties":{"kategorija":"wifi_punkts","id":"node/845586725","nosaukums":"Eiropa","adrese":"Jūras iela 56, Jūrmala","name":"Eiropa","tourism":"hotel"}},{"type":"Feature","geometry":{"type":"Point","coordinates":[21.565134,56.981934]},"properties":{"kategorija":"wifi_punkts","id":"node/8688343462","nosaukums":"Alsungas bibliotēka","adrese":"Raiņa iela 2, Alsunga","name":"Alsungas bibliotēka","opening_hours":"Mo,Su,Th[4] off; Tu,Th-Fr 09:00-12:00,13:00-18:00; We 09:00-12:00,13:00-19:00; Sa 08:00-14:00","amenity":"library"}},{"type":"Feature","geometry":{"type":"Point","coordinates":[26.938013,57.443841]},"properties":{"kategorija":"wifi_punkts","id":"node/8890920634","nosaukums":"Alsviķu bibliotēka","adrese":"Alsviķi","name":"Alsviķu bibliotēka","amenity":"library"}},{"type":"Feature","geometry":{"type":"Point","coordinates":[26.527617,55.900591]},"properties":{"kategorija":"wifi_punkts","id":"node/9042293773","nosaukums":"WingD","adrese":"Raipoles iela 10, Daugavpils","name":"WingD","operator":"WingD","opening_hours":"Mo-Su 10:00-22:00","amenity":"fast_food"}},{"type":"Feature","geometry":{"type":"Point","coordinates":[24.117835,56.877203]},"properties":{"kategorija":"wifi_punkts","id":"node/9245337089","nosaukums":"Baložu pilsētas bibliotēka","adrese":"Skolas iela 4, Baloži","name":"Baložu pilsētas bibliotēka","amenity":"library"}},{"type":"Feature","geometry":{"type":"Point","coordinates":[26.396907,57.260319]},"properties":{"kategorija":"wifi_punkts","id":"node/9328596201","nosaukums":"Mežvidi","adrese":"","name":"Mežvidi","website":"https://viesu-maja-mezvidi.business.site/","tourism":"guest_house"}},{"type":"Feature","geometry":{"type":"Point","coordinates":[27.331804,56.508793]},"properties":{"kategorija":"wifi_punkts","id":"node/9484513949","nosaukums":"Apavi visai ģimenei","adrese":"Atbrīvošanas aleja 101, Rēzekne","name":"Apavi visai ģimenei","opening_hours":"Mo-Fr 10:00-13:30,14:00-17:00; Sa 10:00-14:00; Su off","shop":"shoes"}},{"type":"Feature","geometry":{"type":"Point","coordinates":[23.503712,57.015261]},"properties":{"kategorija":"wifi_punkts","id":"node/9516008744","nosaukums":"Serenity Coast","adrese":"Lapmežciems","name":"Serenity Coast","website":"https://www.serenity-coast.com","tourism":"guest_house"}},{"type":"Feature","geometry":{"type":"Point","coordinates":[24.116429,56.946068]},"properties":{"kategorija":"wifi_punkts","id":"node/9847684362","nosaukums":"Chat","adrese":"13. janvāra iela 8, Rīga","name":"Chat","website":"https://www.chat.restaurant","amenity":"restaurant"}},{"type":"Feature","geometry":{"type":"Point","coordinates":[23.262069,56.92044]},"properties":{"kategorija":"wifi_punkts","id":"node/9899376645","nosaukums":"Sanders","adrese":"Ozolpils","name":"Sanders","opening_hours":"Mo-Sa 09:00-20:00","website":"https://www.booking.com/hotel/lv/sanders.html","tourism":"motel"}},{"type":"Feature","geometry":{"type":"Point","coordinates":[24.10709,56.961401]},"properties":{"kategorija":"wifi_punkts","id":"way/100409367","nosaukums":"Rixwell Terrace Design Hotel","adrese":"","name":"Rixwell Terrace Design Hotel","operator":"Mogotel Ltd.","website":"https://www.rixwell.com/terracedesign","tourism":"hotel"}},{"type":"Feature","geometry":{"type":"Point","coordinates":[23.860637,56.985097]},"properties":{"kategorija":"wifi_punkts","id":"way/105114373","nosaukums":"Lielupe","adrese":"Bulduru prospekts 64/68, Jūrmala","name":"Lielupe","tourism":"hotel"}},{"type":"Feature","geometry":{"type":"Point","coordinates":[23.76353,56.965915]},"properties":{"kategorija":"wifi_punkts","id":"way/105126303","nosaukums":"Jūrmalas Centrālā bibliotēka","adrese":"Strēlnieku prospekts 30, Jūrmala","name":"Jūrmalas Centrālā bibliotēka","opening_hours":"Mo-Fr 11:00-19:00; Sa 10:00-16:00; Su off; Th[-1] off; PH off","amenity":"library"}},{"type":"Feature","geometry":{"type":"Point","coordinates":[24.277477,57.128467]},"properties":{"kategorija":"wifi_punkts","id":"way/1069916219","nosaukums":"Carnikavas Informācijas centrs","adrese":"Rīgas iela 16, Carnikava","name":"Carnikavas Informācijas centrs","website":"https://www.facebook.com/carnikava.tic/","tourism":"information"}},{"type":"Feature","geometry":{"type":"Point","coordinates":[24.8541,57.153186]},"properties":{"kategorija":"wifi_punkts","id":"way/113901134","nosaukums":"Siguldas dzelzceļa stacija un autoosta","adrese":"Ausekļa iela 6, Sigulda","name":"Siguldas dzelzceļa stacija un autoosta"}},{"type":"Feature","geometry":{"type":"Point","coordinates":[24.841339,57.141188]},"properties":{"kategorija":"wifi_punkts","id":"way/113901528","nosaukums":"Hotel Kaupo","adrese":"Sigulda","name":"Hotel Kaupo","website":"http://hotelkaupo.lv/","tourism":"hotel"}},{"type":"Feature","geometry":{"type":"Point","coordinates":[24.858601,57.155588]},"properties":{"kategorija":"wifi_punkts","id":"way/113902468","nosaukums":"Parks","adrese":"Atbrīvotāju iela 1, Sigulda","name":"Parks","website":"https://www.parks-inn.lv/","tourism":"guest_house"}},{"type":"Feature","geometry":{"type":"Point","coordinates":[24.857171,57.14374]},"properties":{"kategorija":"wifi_punkts","id":"way/113903098","nosaukums":"Good Stay Segevold","adrese":"Mālpils iela 4B, Sigulda","name":"Good Stay Segevold","operator":"Good Stay Hotels","website":"http://www.goodstayhotels.com/","tourism":"hotel"}},{"type":"Feature","geometry":{"type":"Point","coordinates":[24.25126,56.954422]},"properties":{"kategorija":"wifi_punkts","id":"way/1158492990","nosaukums":"McDonald's","adrese":"Juglas iela 95A, Rīga","name":"McDonald's","brand":"McDonald's","website":"https://mcdonalds.lv/location/saga/","internet_access:ssid":"McD-Free-WiFi","amenity":"fast_food"}},{"type":"Feature","geometry":{"type":"Point","coordinates":[24.863656,57.131079]},"properties":{"kategorija":"wifi_punkts","id":"way/1198875560","nosaukums":"Camping Lakeside Sigulda","adrese":"","name":"Camping Lakeside Sigulda","website":"https://www.lakeside.lv","tourism":"camp_site"}},{"type":"Feature","geometry":{"type":"Point","coordinates":[24.362672,57.755905]},"properties":{"kategorija":"wifi_punkts","id":"way/121618022","nosaukums":"Bezmaksas Wi-Fi","adrese":"Viļņu iela 2A, Salacgrīva","opening_hours":"Mo-Su 11:00-22:00"}},{"type":"Feature","geometry":{"type":"Point","coordinates":[21.012315,56.475817]},"properties":{"kategorija":"wifi_punkts","id":"way/1302454464","nosaukums":"Liepājas robeža","adrese":"","name":"Liepājas robeža","tourism":"camp_site"}},{"type":"Feature","geometry":{"type":"Point","coordinates":[24.183102,56.919057]},"properties":{"kategorija":"wifi_punkts","id":"way/145485461","nosaukums":"Strops","adrese":"Salaspils iela 16A, Rīga","name":"Strops","website":"https://www.booking.com/hotel/lv/strops.lv.html","tourism":"motel"}},{"type":"Feature","geometry":{"type":"Point","coordinates":[24.111865,56.948395]},"properties":{"kategorija":"wifi_punkts","id":"way/161847503","nosaukums":"Man-Tess","adrese":"Teātra iela 6, Rīga","name":"Man-Tess","tourism":"hotel"}},{"type":"Feature","geometry":{"type":"Point","coordinates":[26.544991,55.876142]},"properties":{"kategorija":"wifi_punkts","id":"way/203863400","nosaukums":"Dinaburg SPA","adrese":"Dobeles iela 39, Daugavpils","name":"Dinaburg SPA","brand":"Good Stay Hotels","website":"http://www.goodstayhotels.com/viesnicas/dinaburg-hotel/","tourism":"hotel"}},{"type":"Feature","geometry":{"type":"Point","coordinates":[23.743865,56.657176]},"properties":{"kategorija":"wifi_punkts","id":"way/226398235","nosaukums":"McDonald's","adrese":"","name":"McDonald's","brand":"McDonald's","opening_hours":"24/7","website":"https://mcdonalds.lv/","amenity":"fast_food"}},{"type":"Feature","geometry":{"type":"Point","coordinates":[25.14912,57.317854]},"properties":{"kategorija":"wifi_punkts","id":"way/226877738","nosaukums":"Bezmaksas Wi-Fi","adrese":"","operator":"Apalkans Kamping","tourism":"chalet"}},{"type":"Feature","geometry":{"type":"Point","coordinates":[25.148939,57.317974]},"properties":{"kategorija":"wifi_punkts","id":"way/227094458","nosaukums":"Apaļkalns","adrese":"","name":"Apaļkalns","website":"https://www.apalkalns.lv/","tourism":"camp_site"}},{"type":"Feature","geometry":{"type":"Point","coordinates":[23.15878,56.965145]},"properties":{"kategorija":"wifi_punkts","id":"way/281528864","nosaukums":"Tukums","adrese":"Pils iela 9, Tukums","name":"Tukums","website":"https://www.hoteltukums.lv/","tourism":"hotel"}},{"type":"Feature","geometry":{"type":"Point","coordinates":[23.732516,56.653031]},"properties":{"kategorija":"wifi_punkts","id":"way/300792177","nosaukums":"\"Silva\" tējas namiņš","adrese":"Pilssalas iela 2A, Jelgava","name":"\"Silva\" tējas namiņš","opening_hours":"Mo-Su 10:00-22:00","website":"https://bistro.lv/tejas-namins/","amenity":"cafe","shop":"confectionery"}},{"type":"Feature","geometry":{"type":"Point","coordinates":[24.195819,56.408]},"properties":{"kategorija":"wifi_punkts","id":"way/31715662","nosaukums":"Rixwell Bauska Hotel","adrese":"Slimnīcas iela 7, Bauska","name":"Rixwell Bauska Hotel","operator":"Mogotel, Ltd.","website":"https://www.rixwell.com/bauska","tourism":"hotel"}},{"type":"Feature","geometry":{"type":"Point","coordinates":[27.217497,56.024667]},"properties":{"kategorija":"wifi_punkts","id":"way/317285251","nosaukums":"Mazais ronis","adrese":"","name":"Mazais ronis","operator":"Lejasmalas","tourism":"hotel"}},{"type":"Feature","geometry":{"type":"Point","coordinates":[27.215624,56.025379]},"properties":{"kategorija":"wifi_punkts","id":"way/317286002","nosaukums":"Pingvīns","adrese":"","name":"Pingvīns","operator":"Lejasmalas","tourism":"hotel"}},{"type":"Feature","geometry":{"type":"Point","coordinates":[24.899846,57.153867]},"properties":{"kategorija":"wifi_punkts","id":"way/318835869","nosaukums":"Bucefāls","adrese":"","name":"Bucefāls","website":"https://www.bucefals.lv/","tourism":"guest_house"}},{"type":"Feature","geometry":{"type":"Point","coordinates":[24.232076,56.831814]},"properties":{"kategorija":"wifi_punkts","id":"way/33337255","nosaukums":"Liiba","adrese":"Rīgas iela 22A, Ķekava","name":"Liiba","shop":"mall"}},{"type":"Feature","geometry":{"type":"Point","coordinates":[26.533961,55.86552]},"properties":{"kategorija":"wifi_punkts","id":"way/370355904","nosaukums":"Erfolg","adrese":"Nometņu iela 25A, Daugavpils","name":"Erfolg","website":"http://www.erfolg.lv/hotel/","tourism":"hotel"}},{"type":"Feature","geometry":{"type":"Point","coordinates":[24.11034,56.958482]},"properties":{"kategorija":"wifi_punkts","id":"way/412399237","nosaukums":"Mosaic","adrese":"Elizabetes iela 31B, Rīga","name":"Mosaic","opening_hours":"24/7","website":"http://mosaic-hotel.net/","tourism":"hotel"}},{"type":"Feature","geometry":{"type":"Point","coordinates":[27.530606,56.622642]},"properties":{"kategorija":"wifi_punkts","id":"way/510489546","nosaukums":"Meirānu Krasts","adrese":"","name":"Meirānu Krasts","website":"https://meiranukrasts.jimdo.com/","tourism":"chalet"}},{"type":"Feature","geometry":{"type":"Point","coordinates":[21.385354,57.007507]},"properties":{"kategorija":"wifi_punkts","id":"way/512860636","nosaukums":"Pilsberģu krogs","adrese":"Jūrkalne","name":"Pilsberģu krogs","opening_hours":"Mo-Th 12:00-20:00; Fr-Sa 12:00-21:00; Su 12:00-21:00","website":"https://www.pilsbergi.lv/","amenity":"restaurant","tourism":"hotel"}},{"type":"Feature","geometry":{"type":"Point","coordinates":[24.227684,56.97061]},"properties":{"kategorija":"wifi_punkts","id":"way/627730712","nosaukums":"Rīgas Motormuzejs","adrese":"Sergeja Eizenšteina iela 8, Rīga","name":"Rīgas Motormuzejs","opening_hours":"Tu-Su 10:00-18:00, Mo closed","internet_access:ssid":"Tet-free","tourism":"museum"}},{"type":"Feature","geometry":{"type":"Point","coordinates":[24.168645,56.563227]},"properties":{"kategorija":"wifi_punkts","id":"way/670338314","nosaukums":"Labirinti","adrese":"","name":"Labirinti","operator":"Labirinti","tourism":"camp_site"}},{"type":"Feature","geometry":{"type":"Point","coordinates":[25.274533,57.314119]},"properties":{"kategorija":"wifi_punkts","id":"way/67192535","nosaukums":"Hotel Cēsis","adrese":"Vienības laukums 1, Cēsis","name":"Hotel Cēsis","tourism":"hotel"}},{"type":"Feature","geometry":{"type":"Point","coordinates":[26.517224,55.871759]},"properties":{"kategorija":"wifi_punkts","id":"way/691267714","nosaukums":"Park Hotel Latgola","adrese":"Ģimnāzijas iela 46, Daugavpils","name":"Park Hotel Latgola","website":"https://hotellatgola.lv/","tourism":"hotel"}},{"type":"Feature","geometry":{"type":"Point","coordinates":[23.998305,56.953786]},"properties":{"kategorija":"wifi_punkts","id":"way/711128667","nosaukums":"Hesburger","adrese":"Kurzemes prospekts 166, Rīga","name":"Hesburger","operator":"RIGABURGER SIA","brand":"Hesburger","opening_hours":"Mo-Th 09:00-22:30; Fr 09:00-24:00; Sa 10:00-24:00; Su 10:00-22:30","website":"https://www.hesburger.lv/","amenity":"fast_food"}},{"type":"Feature","geometry":{"type":"Point","coordinates":[24.018361,56.943389]},"properties":{"kategorija":"wifi_punkts","id":"way/71143223","nosaukums":"Ixo centrs","adrese":"Anniņmuižas iela 17, Rīga","name":"Ixo centrs","shop":"mall"}},{"type":"Feature","geometry":{"type":"Point","coordinates":[25.2304,57.311354]},"properties":{"kategorija":"wifi_punkts","id":"way/72868672","nosaukums":"Villa \"Santa\"","adrese":"","name":"Villa \"Santa\"","website":"https://www.villasanta.lv/","tourism":"hotel"}},{"type":"Feature","geometry":{"type":"Point","coordinates":[24.492521,56.612596]},"properties":{"kategorija":"wifi_punkts","id":"way/786036740","nosaukums":"Holiday home Slokas","adrese":"","name":"Holiday home Slokas","tourism":"chalet"}},{"type":"Feature","geometry":{"type":"Point","coordinates":[26.575627,57.279166]},"properties":{"kategorija":"wifi_punkts","id":"way/801407345","nosaukums":"Lejasciema pagasta bibliotēka","adrese":"Rīgas iela 18, Lejasciems","name":"Lejasciema pagasta bibliotēka","opening_hours":"Mo 09:00-12:00, 12:30-17; Tu-Fr 09:00-17:00","website":"http://www.lejasciems.lv/","amenity":"library"}},{"type":"Feature","geometry":{"type":"Point","coordinates":[26.530777,55.878817]},"properties":{"kategorija":"wifi_punkts","id":"way/902045509","nosaukums":"Duets","adrese":"2. Preču iela 1, Daugavpils","name":"Duets","tourism":"guest_house"}},{"type":"Feature","geometry":{"type":"Point","coordinates":[23.998427,56.922791]},"properties":{"kategorija":"wifi_punkts","id":"way/935877373","nosaukums":"Hampton by Hilton Riga Airport","adrese":"","name":"Hampton by Hilton Riga Airport","operator":"Hilton","brand":"Hilton","website":"https://www.hilton.com/en/hotels/rixrahx-hampton-riga-airport/","tourism":"hotel"}},{"type":"Feature","geometry":{"type":"Point","coordinates":[21.585856,57.385162]},"properties":{"kategorija":"wifi_punkts","id":"way/94480125","nosaukums":"Circle K","adrese":"Rūpniecības iela 4, Ventspils","name":"Circle K","brand":"Circle K","opening_hours":"24/7","shop":"convenience"}}]}